{
    "DZ": {
        "name": "Algeria",
        "name_ar": "الجزائر",
        "name_es": "Argelia",
        "name_fr": "Algérie",
        "name_ru": "Алжир",
        "name_zh": "阿尔及利亚",
        "iso_alpha2": "DZ",
        "iso_alpha3": "DZA",
        "un_m49": 12,
        "region_code": 2,
        "region": "Africa",
        "region_sub_code": 15,
        "region_sub": "Northern Africa"
    },
    "EG": {
        "name": "Egypt",
        "name_ar": "مصر",
        "name_es": "Egipto",
        "name_fr": "Égypte",
        "name_ru": "Египет",
        "name_zh": "埃及",
        "iso_alpha2": "EG",
        "iso_alpha3": "EGY",
        "un_m49": 818,
        "region_code": 2,
        "region": "Africa",
        "region_sub_code": 15,
        "region_sub": "Northern Africa"
    },
    "LY": {
        "name": "Libya",
        "name_ar": "ليبيا",
        "name_es": "Libia",
        "name_fr": "Libye",
        "name_ru": "Ливия",
        "name_zh": "利比亚",
        "iso_alpha2": "LY",
        "iso_alpha3": "LBY",
        "un_m49": 434,
        "region_code": 2,
        "region": "Africa",
        "region_sub_code": 15,
        "region_sub": "Northern Africa"
    },
    "MA": {
        "name": "Morocco",
        "name_ar": "المغرب",
        "name_es": "Marruecos",
        "name_fr": "Maroc",
        "name_ru": "Марокко",
        "name_zh": "摩洛哥",
        "iso_alpha2": "MA",
        "iso_alpha3": "MAR",
        "un_m49": 504,
        "region_code": 2,
        "region": "Africa",
        "region_sub_code": 15,
        "region_sub": "Northern Africa"
    },
    "SD": {
        "name": "Sudan",
        "name_ar": "السودان",
        "name_es": "Sudán",
        "name_fr": "Soudan",
        "name_ru": "Судан",
        "name_zh": "苏丹",
        "iso_alpha2": "SD",
        "iso_alpha3": "SDN",
        "un_m49": 729,
        "region_code": 2,
        "region": "Africa",
        "region_sub_code": 15,
        "region_sub": "Northern Africa"
    },
    "TN": {
        "name": "Tunisia",
        "name_ar": "تونس",
        "name_es": "Túnez",
        "name_fr": "Tunisie",
        "name_ru": "Тунис",
        "name_zh": "突尼斯",
        "iso_alpha2": "TN",
        "iso_alpha3": "TUN",
        "un_m49": 788,
        "region_code": 2,
        "region": "Africa",
        "region_sub_code": 15,
        "region_sub": "Northern Africa"
    },
    "EH": {
        "name": "Western Sahara",
        "name_ar": "الصحراء الغربية",
        "name_es": "Sáhara Occidental",
        "name_fr": "Sahara occidental",
        "name_ru": "Западная Сахара",
        "name_zh": "西撒哈拉",
        "iso_alpha2": "EH",
        "iso_alpha3": "ESH",
        "un_m49": 732,
        "region_code": 2,
        "region": "Africa",
        "region_sub_code": 15,
        "region_sub": "Northern Africa"
    },
    "IO": {
        "name": "British Indian Ocean Territory",
        "name_ar": "المحيط الهندي الإقليم البريطاني في",
        "name_es": "Territorio Británico del Océano Índico",
        "name_fr": "Territoire britannique de l'océan Indien",
        "name_ru": "Британская территория в Индийском океане",
        "name_zh": "英属印度洋领土",
        "iso_alpha2": "IO",
        "iso_alpha3": "IOT",
        "un_m49": 86,
        "region_code": 2,
        "region": "Africa",
        "intermediate_region_code": 14,
        "intermediate_region": "Eastern Africa",
        "region_sub_code": 202,
        "region_sub": "Sub-Saharan Africa"
    },
    "BI": {
        "name": "Burundi",
        "name_ar": "بوروندي",
        "name_es": "Burundi",
        "name_fr": "Burundi",
        "name_ru": "Бурунди",
        "name_zh": "布隆迪",
        "iso_alpha2": "BI",
        "iso_alpha3": "BDI",
        "un_m49": 108,
        "region_code": 2,
        "region": "Africa",
        "intermediate_region_code": 14,
        "intermediate_region": "Eastern Africa",
        "region_sub_code": 202,
        "region_sub": "Sub-Saharan Africa"
    },
    "KM": {
        "name": "Comoros",
        "name_ar": "جزر القمر",
        "name_es": "Comoras",
        "name_fr": "Comores",
        "name_ru": "Коморские Острова",
        "name_zh": "科摩罗",
        "iso_alpha2": "KM",
        "iso_alpha3": "COM",
        "un_m49": 174,
        "region_code": 2,
        "region": "Africa",
        "intermediate_region_code": 14,
        "intermediate_region": "Eastern Africa",
        "region_sub_code": 202,
        "region_sub": "Sub-Saharan Africa"
    },
    "DJ": {
        "name": "Djibouti",
        "name_ar": "جيبوتي",
        "name_es": "Djibouti",
        "name_fr": "Djibouti",
        "name_ru": "Джибути",
        "name_zh": "吉布提",
        "iso_alpha2": "DJ",
        "iso_alpha3": "DJI",
        "un_m49": 262,
        "region_code": 2,
        "region": "Africa",
        "intermediate_region_code": 14,
        "intermediate_region": "Eastern Africa",
        "region_sub_code": 202,
        "region_sub": "Sub-Saharan Africa"
    },
    "ER": {
        "name": "Eritrea",
        "name_ar": "إريتريا",
        "name_es": "Eritrea",
        "name_fr": "Érythrée",
        "name_ru": "Эритрея",
        "name_zh": "厄立特里亚",
        "iso_alpha2": "ER",
        "iso_alpha3": "ERI",
        "un_m49": 232,
        "region_code": 2,
        "region": "Africa",
        "intermediate_region_code": 14,
        "intermediate_region": "Eastern Africa",
        "region_sub_code": 202,
        "region_sub": "Sub-Saharan Africa"
    },
    "ET": {
        "name": "Ethiopia",
        "name_ar": "إثيوبيا",
        "name_es": "Etiopía",
        "name_fr": "Éthiopie",
        "name_ru": "Эфиопия",
        "name_zh": "埃塞俄比亚",
        "iso_alpha2": "ET",
        "iso_alpha3": "ETH",
        "un_m49": 231,
        "region_code": 2,
        "region": "Africa",
        "intermediate_region_code": 14,
        "intermediate_region": "Eastern Africa",
        "region_sub_code": 202,
        "region_sub": "Sub-Saharan Africa"
    },
    "TF": {
        "name": "French Southern Territories",
        "name_ar": "الأراضي الفرنسية الجنوبية الجنوبية",
        "name_es": "Territorio de las Tierras Australes Francesas",
        "name_fr": "Terres australes françaises",
        "name_ru": "Южные земли (французская заморская территория)",
        "name_zh": "法属南方领地",
        "iso_alpha2": "TF",
        "iso_alpha3": "ATF",
        "un_m49": 260,
        "region_code": 2,
        "region": "Africa",
        "intermediate_region_code": 14,
        "intermediate_region": "Eastern Africa",
        "region_sub_code": 202,
        "region_sub": "Sub-Saharan Africa"
    },
    "KE": {
        "name": "Kenya",
        "name_ar": "كينيا",
        "name_es": "Kenya",
        "name_fr": "Kenya",
        "name_ru": "Кения",
        "name_zh": "肯尼亚",
        "iso_alpha2": "KE",
        "iso_alpha3": "KEN",
        "un_m49": 404,
        "region_code": 2,
        "region": "Africa",
        "intermediate_region_code": 14,
        "intermediate_region": "Eastern Africa",
        "region_sub_code": 202,
        "region_sub": "Sub-Saharan Africa"
    },
    "MG": {
        "name": "Madagascar",
        "name_ar": "مدغشقر",
        "name_es": "Madagascar",
        "name_fr": "Madagascar",
        "name_ru": "Мадагаскар",
        "name_zh": "马达加斯加",
        "iso_alpha2": "MG",
        "iso_alpha3": "MDG",
        "un_m49": 450,
        "region_code": 2,
        "region": "Africa",
        "intermediate_region_code": 14,
        "intermediate_region": "Eastern Africa",
        "region_sub_code": 202,
        "region_sub": "Sub-Saharan Africa"
    },
    "MW": {
        "name": "Malawi",
        "name_ar": "ملاوي",
        "name_es": "Malawi",
        "name_fr": "Malawi",
        "name_ru": "Малави",
        "name_zh": "马拉维",
        "iso_alpha2": "MW",
        "iso_alpha3": "MWI",
        "un_m49": 454,
        "region_code": 2,
        "region": "Africa",
        "intermediate_region_code": 14,
        "intermediate_region": "Eastern Africa",
        "region_sub_code": 202,
        "region_sub": "Sub-Saharan Africa"
    },
    "MU": {
        "name": "Mauritius",
        "name_ar": "موريشيوس",
        "name_es": "Mauricio",
        "name_fr": "Maurice",
        "name_ru": "Маврикий",
        "name_zh": "毛里求斯",
        "iso_alpha2": "MU",
        "iso_alpha3": "MUS",
        "un_m49": 480,
        "region_code": 2,
        "region": "Africa",
        "intermediate_region_code": 14,
        "intermediate_region": "Eastern Africa",
        "region_sub_code": 202,
        "region_sub": "Sub-Saharan Africa"
    },
    "YT": {
        "name": "Mayotte",
        "name_ar": "مايوت",
        "name_es": "Mayotte",
        "name_fr": "Mayotte",
        "name_ru": "Остров Майотта",
        "name_zh": "马约特",
        "iso_alpha2": "YT",
        "iso_alpha3": "MYT",
        "un_m49": 175,
        "region_code": 2,
        "region": "Africa",
        "intermediate_region_code": 14,
        "intermediate_region": "Eastern Africa",
        "region_sub_code": 202,
        "region_sub": "Sub-Saharan Africa"
    },
    "MZ": {
        "name": "Mozambique",
        "name_ar": "موزامبيق",
        "name_es": "Mozambique",
        "name_fr": "Mozambique",
        "name_ru": "Мозамбик",
        "name_zh": "莫桑比克",
        "iso_alpha2": "MZ",
        "iso_alpha3": "MOZ",
        "un_m49": 508,
        "region_code": 2,
        "region": "Africa",
        "intermediate_region_code": 14,
        "intermediate_region": "Eastern Africa",
        "region_sub_code": 202,
        "region_sub": "Sub-Saharan Africa"
    },
    "RE": {
        "name": "Réunion",
        "name_ar": "ريونيون",
        "name_es": "Reunión",
        "name_fr": "Réunion",
        "name_ru": "Реюньон",
        "name_zh": "留尼汪",
        "iso_alpha2": "RE",
        "iso_alpha3": "REU",
        "un_m49": 638,
        "region_code": 2,
        "region": "Africa",
        "intermediate_region_code": 14,
        "intermediate_region": "Eastern Africa",
        "region_sub_code": 202,
        "region_sub": "Sub-Saharan Africa"
    },
    "RW": {
        "name": "Rwanda",
        "name_ar": "رواندا",
        "name_es": "Rwanda",
        "name_fr": "Rwanda",
        "name_ru": "Руанда",
        "name_zh": "卢旺达",
        "iso_alpha2": "RW",
        "iso_alpha3": "RWA",
        "un_m49": 646,
        "region_code": 2,
        "region": "Africa",
        "intermediate_region_code": 14,
        "intermediate_region": "Eastern Africa",
        "region_sub_code": 202,
        "region_sub": "Sub-Saharan Africa"
    },
    "SC": {
        "name": "Seychelles",
        "name_ar": "سيشيل",
        "name_es": "Seychelles",
        "name_fr": "Seychelles",
        "name_ru": "Сейшельские Острова",
        "name_zh": "塞舌尔",
        "iso_alpha2": "SC",
        "iso_alpha3": "SYC",
        "un_m49": 690,
        "region_code": 2,
        "region": "Africa",
        "intermediate_region_code": 14,
        "intermediate_region": "Eastern Africa",
        "region_sub_code": 202,
        "region_sub": "Sub-Saharan Africa"
    },
    "SO": {
        "name": "Somalia",
        "name_ar": "الصومال",
        "name_es": "Somalia",
        "name_fr": "Somalie",
        "name_ru": "Сомали",
        "name_zh": "索马里",
        "iso_alpha2": "SO",
        "iso_alpha3": "SOM",
        "un_m49": 706,
        "region_code": 2,
        "region": "Africa",
        "intermediate_region_code": 14,
        "intermediate_region": "Eastern Africa",
        "region_sub_code": 202,
        "region_sub": "Sub-Saharan Africa"
    },
    "SS": {
        "name": "South Sudan",
        "name_ar": "جنوب السودان",
        "name_es": "Sudán del Sur",
        "name_fr": "Soudan du Sud",
        "name_ru": "Южный Судан",
        "name_zh": "南苏丹",
        "iso_alpha2": "SS",
        "iso_alpha3": "SSD",
        "un_m49": 728,
        "region_code": 2,
        "region": "Africa",
        "intermediate_region_code": 14,
        "intermediate_region": "Eastern Africa",
        "region_sub_code": 202,
        "region_sub": "Sub-Saharan Africa"
    },
    "UG": {
        "name": "Uganda",
        "name_ar": "أوغندا",
        "name_es": "Uganda",
        "name_fr": "Ouganda",
        "name_ru": "Уганда",
        "name_zh": "乌干达",
        "iso_alpha2": "UG",
        "iso_alpha3": "UGA",
        "un_m49": 800,
        "region_code": 2,
        "region": "Africa",
        "intermediate_region_code": 14,
        "intermediate_region": "Eastern Africa",
        "region_sub_code": 202,
        "region_sub": "Sub-Saharan Africa"
    },
    "TZ": {
        "name": "United Republic of Tanzania",
        "name_ar": "جمهورية تنزانيا المتحدة",
        "name_es": "República Unida de Tanzanía",
        "name_fr": "République-Unie de Tanzanie",
        "name_ru": "Объединенная Республика Танзания",
        "name_zh": "坦桑尼亚联合共和国",
        "iso_alpha2": "TZ",
        "iso_alpha3": "TZA",
        "un_m49": 834,
        "region_code": 2,
        "region": "Africa",
        "intermediate_region_code": 14,
        "intermediate_region": "Eastern Africa",
        "region_sub_code": 202,
        "region_sub": "Sub-Saharan Africa"
    },
    "ZM": {
        "name": "Zambia",
        "name_ar": "زامبيا",
        "name_es": "Zambia",
        "name_fr": "Zambie",
        "name_ru": "Замбия",
        "name_zh": "赞比亚",
        "iso_alpha2": "ZM",
        "iso_alpha3": "ZMB",
        "un_m49": 894,
        "region_code": 2,
        "region": "Africa",
        "intermediate_region_code": 14,
        "intermediate_region": "Eastern Africa",
        "region_sub_code": 202,
        "region_sub": "Sub-Saharan Africa"
    },
    "ZW": {
        "name": "Zimbabwe",
        "name_ar": "زمبابوي",
        "name_es": "Zimbabwe",
        "name_fr": "Zimbabwe",
        "name_ru": "Зимбабве",
        "name_zh": "津巴布韦",
        "iso_alpha2": "ZW",
        "iso_alpha3": "ZWE",
        "un_m49": 716,
        "region_code": 2,
        "region": "Africa",
        "intermediate_region_code": 14,
        "intermediate_region": "Eastern Africa",
        "region_sub_code": 202,
        "region_sub": "Sub-Saharan Africa"
    },
    "AO": {
        "name": "Angola",
        "name_ar": "أنغولا",
        "name_es": "Angola",
        "name_fr": "Angola",
        "name_ru": "Ангола",
        "name_zh": "安哥拉",
        "iso_alpha2": "AO",
        "iso_alpha3": "AGO",
        "un_m49": 24,
        "region_code": 2,
        "region": "Africa",
        "intermediate_region_code": 17,
        "intermediate_region": "Middle Africa",
        "region_sub_code": 202,
        "region_sub": "Sub-Saharan Africa"
    },
    "CM": {
        "name": "Cameroon",
        "name_ar": "الكاميرون",
        "name_es": "Camerún",
        "name_fr": "Cameroun",
        "name_ru": "Камерун",
        "name_zh": "喀麦隆",
        "iso_alpha2": "CM",
        "iso_alpha3": "CMR",
        "un_m49": 120,
        "region_code": 2,
        "region": "Africa",
        "intermediate_region_code": 17,
        "intermediate_region": "Middle Africa",
        "region_sub_code": 202,
        "region_sub": "Sub-Saharan Africa"
    },
    "CF": {
        "name": "Central African Republic",
        "name_ar": "جمهورية أفريقيا الوسطى",
        "name_es": "República Centroafricana",
        "name_fr": "République centrafricaine",
        "name_ru": "Центральноафриканская Республика",
        "name_zh": "中非共和国",
        "iso_alpha2": "CF",
        "iso_alpha3": "CAF",
        "un_m49": 140,
        "region_code": 2,
        "region": "Africa",
        "intermediate_region_code": 17,
        "intermediate_region": "Middle Africa",
        "region_sub_code": 202,
        "region_sub": "Sub-Saharan Africa"
    },
    "TD": {
        "name": "Chad",
        "name_ar": "تشاد",
        "name_es": "Chad",
        "name_fr": "Tchad",
        "name_ru": "Чад",
        "name_zh": "乍得",
        "iso_alpha2": "TD",
        "iso_alpha3": "TCD",
        "un_m49": 148,
        "region_code": 2,
        "region": "Africa",
        "intermediate_region_code": 17,
        "intermediate_region": "Middle Africa",
        "region_sub_code": 202,
        "region_sub": "Sub-Saharan Africa"
    },
    "CG": {
        "name": "Congo",
        "name_ar": "الكونغو",
        "name_es": "Congo",
        "name_fr": "Congo",
        "name_ru": "Конго",
        "name_zh": "刚果",
        "iso_alpha2": "CG",
        "iso_alpha3": "COG",
        "un_m49": 178,
        "region_code": 2,
        "region": "Africa",
        "intermediate_region_code": 17,
        "intermediate_region": "Middle Africa",
        "region_sub_code": 202,
        "region_sub": "Sub-Saharan Africa"
    },
    "CD": {
        "name": "Democratic Republic of the Congo",
        "name_ar": "جمهورية الكونغو الديمقراطية",
        "name_es": "República Democrática del Congo",
        "name_fr": "République démocratique du Congo",
        "name_ru": "Демократическая Республика Конго",
        "name_zh": "刚果民主共和国",
        "iso_alpha2": "CD",
        "iso_alpha3": "COD",
        "un_m49": 180,
        "region_code": 2,
        "region": "Africa",
        "intermediate_region_code": 17,
        "intermediate_region": "Middle Africa",
        "region_sub_code": 202,
        "region_sub": "Sub-Saharan Africa"
    },
    "GQ": {
        "name": "Equatorial Guinea",
        "name_ar": "غينيا الاستوائية",
        "name_es": "Guinea Ecuatorial",
        "name_fr": "Guinée équatoriale",
        "name_ru": "Экваториальная Гвинея",
        "name_zh": "赤道几内亚",
        "iso_alpha2": "GQ",
        "iso_alpha3": "GNQ",
        "un_m49": 226,
        "region_code": 2,
        "region": "Africa",
        "intermediate_region_code": 17,
        "intermediate_region": "Middle Africa",
        "region_sub_code": 202,
        "region_sub": "Sub-Saharan Africa"
    },
    "GA": {
        "name": "Gabon",
        "name_ar": "غابون",
        "name_es": "Gabón",
        "name_fr": "Gabon",
        "name_ru": "Габон",
        "name_zh": "加蓬",
        "iso_alpha2": "GA",
        "iso_alpha3": "GAB",
        "un_m49": 266,
        "region_code": 2,
        "region": "Africa",
        "intermediate_region_code": 17,
        "intermediate_region": "Middle Africa",
        "region_sub_code": 202,
        "region_sub": "Sub-Saharan Africa"
    },
    "ST": {
        "name": "Sao Tome and Principe",
        "name_ar": "سان تومي وبرينسيبي",
        "name_es": "Santo Tomé y Príncipe",
        "name_fr": "Sao Tomé-et-Principe",
        "name_ru": "Сан-Томе и Принсипи",
        "name_zh": "圣多美和普林西比",
        "iso_alpha2": "ST",
        "iso_alpha3": "STP",
        "un_m49": 678,
        "region_code": 2,
        "region": "Africa",
        "intermediate_region_code": 17,
        "intermediate_region": "Middle Africa",
        "region_sub_code": 202,
        "region_sub": "Sub-Saharan Africa"
    },
    "BW": {
        "name": "Botswana",
        "name_ar": "بوتسوانا",
        "name_es": "Botswana",
        "name_fr": "Botswana",
        "name_ru": "Ботсвана",
        "name_zh": "博茨瓦纳",
        "iso_alpha2": "BW",
        "iso_alpha3": "BWA",
        "un_m49": 72,
        "region_code": 2,
        "region": "Africa",
        "intermediate_region_code": 18,
        "intermediate_region": "Southern Africa",
        "region_sub_code": 202,
        "region_sub": "Sub-Saharan Africa"
    },
    "SZ": {
        "name": "Eswatini",
        "name_ar": "إسواتيني",
        "name_es": "Eswatini",
        "name_fr": "Eswatini",
        "name_ru": "Эсватини",
        "name_zh": "斯威士兰",
        "iso_alpha2": "SZ",
        "iso_alpha3": "SWZ",
        "un_m49": 748,
        "region_code": 2,
        "region": "Africa",
        "intermediate_region_code": 18,
        "intermediate_region": "Southern Africa",
        "region_sub_code": 202,
        "region_sub": "Sub-Saharan Africa"
    },
    "LS": {
        "name": "Lesotho",
        "name_ar": "ليسوتو",
        "name_es": "Lesotho",
        "name_fr": "Lesotho",
        "name_ru": "Лесото",
        "name_zh": "莱索托",
        "iso_alpha2": "LS",
        "iso_alpha3": "LSO",
        "un_m49": 426,
        "region_code": 2,
        "region": "Africa",
        "intermediate_region_code": 18,
        "intermediate_region": "Southern Africa",
        "region_sub_code": 202,
        "region_sub": "Sub-Saharan Africa"
    },
    "NA": {
        "name": "Namibia",
        "name_ar": "ناميبيا",
        "name_es": "Namibia",
        "name_fr": "Namibie",
        "name_ru": "Намибия",
        "name_zh": "纳米比亚",
        "iso_alpha2": "NA",
        "iso_alpha3": "NAM",
        "un_m49": 516,
        "region_code": 2,
        "region": "Africa",
        "intermediate_region_code": 18,
        "intermediate_region": "Southern Africa",
        "region_sub_code": 202,
        "region_sub": "Sub-Saharan Africa"
    },
    "ZA": {
        "name": "South Africa",
        "name_ar": "جنوب أفريقيا",
        "name_es": "Sudáfrica",
        "name_fr": "Afrique du Sud",
        "name_ru": "Южная Африка",
        "name_zh": "南非",
        "iso_alpha2": "ZA",
        "iso_alpha3": "ZAF",
        "un_m49": 710,
        "region_code": 2,
        "region": "Africa",
        "intermediate_region_code": 18,
        "intermediate_region": "Southern Africa",
        "region_sub_code": 202,
        "region_sub": "Sub-Saharan Africa"
    },
    "BJ": {
        "name": "Benin",
        "name_ar": "بنن",
        "name_es": "Benin",
        "name_fr": "Bénin",
        "name_ru": "Бенин",
        "name_zh": "贝宁",
        "iso_alpha2": "BJ",
        "iso_alpha3": "BEN",
        "un_m49": 204,
        "region_code": 2,
        "region": "Africa",
        "intermediate_region_code": 11,
        "intermediate_region": "Western Africa",
        "region_sub_code": 202,
        "region_sub": "Sub-Saharan Africa"
    },
    "BF": {
        "name": "Burkina Faso",
        "name_ar": "بوركينا فاسو",
        "name_es": "Burkina Faso",
        "name_fr": "Burkina Faso",
        "name_ru": "Буркина-Фасо",
        "name_zh": "布基纳法索",
        "iso_alpha2": "BF",
        "iso_alpha3": "BFA",
        "un_m49": 854,
        "region_code": 2,
        "region": "Africa",
        "intermediate_region_code": 11,
        "intermediate_region": "Western Africa",
        "region_sub_code": 202,
        "region_sub": "Sub-Saharan Africa"
    },
    "CV": {
        "name": "Cabo Verde",
        "name_ar": "كابو فيردي",
        "name_es": "Cabo Verde",
        "name_fr": "Cabo Verde",
        "name_ru": "Кабо-Верде",
        "name_zh": "佛得角",
        "iso_alpha2": "CV",
        "iso_alpha3": "CPV",
        "un_m49": 132,
        "region_code": 2,
        "region": "Africa",
        "intermediate_region_code": 11,
        "intermediate_region": "Western Africa",
        "region_sub_code": 202,
        "region_sub": "Sub-Saharan Africa"
    },
    "CI": {
        "name": "Côte d’Ivoire",
        "name_ar": "كوت ديفوار",
        "name_es": "Côte d’Ivoire",
        "name_fr": "Côte d’Ivoire",
        "name_ru": "Кот-д'Ивуар",
        "name_zh": "科特迪瓦",
        "iso_alpha2": "CI",
        "iso_alpha3": "CIV",
        "un_m49": 384,
        "region_code": 2,
        "region": "Africa",
        "intermediate_region_code": 11,
        "intermediate_region": "Western Africa",
        "region_sub_code": 202,
        "region_sub": "Sub-Saharan Africa"
    },
    "GM": {
        "name": "Gambia",
        "name_ar": "غامبيا",
        "name_es": "Gambia",
        "name_fr": "Gambie",
        "name_ru": "Гамбия",
        "name_zh": "冈比亚",
        "iso_alpha2": "GM",
        "iso_alpha3": "GMB",
        "un_m49": 270,
        "region_code": 2,
        "region": "Africa",
        "intermediate_region_code": 11,
        "intermediate_region": "Western Africa",
        "region_sub_code": 202,
        "region_sub": "Sub-Saharan Africa"
    },
    "GH": {
        "name": "Ghana",
        "name_ar": "غانا",
        "name_es": "Ghana",
        "name_fr": "Ghana",
        "name_ru": "Гана",
        "name_zh": "加纳",
        "iso_alpha2": "GH",
        "iso_alpha3": "GHA",
        "un_m49": 288,
        "region_code": 2,
        "region": "Africa",
        "intermediate_region_code": 11,
        "intermediate_region": "Western Africa",
        "region_sub_code": 202,
        "region_sub": "Sub-Saharan Africa"
    },
    "GN": {
        "name": "Guinea",
        "name_ar": "غينيا",
        "name_es": "Guinea",
        "name_fr": "Guinée",
        "name_ru": "Гвинея",
        "name_zh": "几内亚",
        "iso_alpha2": "GN",
        "iso_alpha3": "GIN",
        "un_m49": 324,
        "region_code": 2,
        "region": "Africa",
        "intermediate_region_code": 11,
        "intermediate_region": "Western Africa",
        "region_sub_code": 202,
        "region_sub": "Sub-Saharan Africa"
    },
    "GW": {
        "name": "Guinea-Bissau",
        "name_ar": "غينيا - بيساو",
        "name_es": "Guinea-Bissau",
        "name_fr": "Guinée-Bissau",
        "name_ru": "Гвинея-Бисау",
        "name_zh": "几内亚比绍",
        "iso_alpha2": "GW",
        "iso_alpha3": "GNB",
        "un_m49": 624,
        "region_code": 2,
        "region": "Africa",
        "intermediate_region_code": 11,
        "intermediate_region": "Western Africa",
        "region_sub_code": 202,
        "region_sub": "Sub-Saharan Africa"
    },
    "LR": {
        "name": "Liberia",
        "name_ar": "ليبريا",
        "name_es": "Liberia",
        "name_fr": "Libéria",
        "name_ru": "Либерия",
        "name_zh": "利比里亚",
        "iso_alpha2": "LR",
        "iso_alpha3": "LBR",
        "un_m49": 430,
        "region_code": 2,
        "region": "Africa",
        "intermediate_region_code": 11,
        "intermediate_region": "Western Africa",
        "region_sub_code": 202,
        "region_sub": "Sub-Saharan Africa"
    },
    "ML": {
        "name": "Mali",
        "name_ar": "مالي",
        "name_es": "Malí",
        "name_fr": "Mali",
        "name_ru": "Мали",
        "name_zh": "马里",
        "iso_alpha2": "ML",
        "iso_alpha3": "MLI",
        "un_m49": 466,
        "region_code": 2,
        "region": "Africa",
        "intermediate_region_code": 11,
        "intermediate_region": "Western Africa",
        "region_sub_code": 202,
        "region_sub": "Sub-Saharan Africa"
    },
    "MR": {
        "name": "Mauritania",
        "name_ar": "موريتانيا",
        "name_es": "Mauritania",
        "name_fr": "Mauritanie",
        "name_ru": "Мавритания",
        "name_zh": "毛里塔尼亚",
        "iso_alpha2": "MR",
        "iso_alpha3": "MRT",
        "un_m49": 478,
        "region_code": 2,
        "region": "Africa",
        "intermediate_region_code": 11,
        "intermediate_region": "Western Africa",
        "region_sub_code": 202,
        "region_sub": "Sub-Saharan Africa"
    },
    "NE": {
        "name": "Niger",
        "name_ar": "النيجر",
        "name_es": "Níger",
        "name_fr": "Niger",
        "name_ru": "Нигер",
        "name_zh": "尼日尔",
        "iso_alpha2": "NE",
        "iso_alpha3": "NER",
        "un_m49": 562,
        "region_code": 2,
        "region": "Africa",
        "intermediate_region_code": 11,
        "intermediate_region": "Western Africa",
        "region_sub_code": 202,
        "region_sub": "Sub-Saharan Africa"
    },
    "NG": {
        "name": "Nigeria",
        "name_ar": "نيجيريا",
        "name_es": "Nigeria",
        "name_fr": "Nigéria",
        "name_ru": "Нигерия",
        "name_zh": "尼日利亚",
        "iso_alpha2": "NG",
        "iso_alpha3": "NGA",
        "un_m49": 566,
        "region_code": 2,
        "region": "Africa",
        "intermediate_region_code": 11,
        "intermediate_region": "Western Africa",
        "region_sub_code": 202,
        "region_sub": "Sub-Saharan Africa"
    },
    "SH": {
        "name": "Saint Helena",
        "name_ar": "سانت هيلانة",
        "name_es": "Santa Elena",
        "name_fr": "Sainte-Hélène",
        "name_ru": "Остров Святой Елены",
        "name_zh": "圣赫勒拿",
        "iso_alpha2": "SH",
        "iso_alpha3": "SHN",
        "un_m49": 654,
        "region_code": 2,
        "region": "Africa",
        "intermediate_region_code": 11,
        "intermediate_region": "Western Africa",
        "region_sub_code": 202,
        "region_sub": "Sub-Saharan Africa"
    },
    "SN": {
        "name": "Senegal",
        "name_ar": "السنغال",
        "name_es": "Senegal",
        "name_fr": "Sénégal",
        "name_ru": "Сенегал",
        "name_zh": "塞内加尔",
        "iso_alpha2": "SN",
        "iso_alpha3": "SEN",
        "un_m49": 686,
        "region_code": 2,
        "region": "Africa",
        "intermediate_region_code": 11,
        "intermediate_region": "Western Africa",
        "region_sub_code": 202,
        "region_sub": "Sub-Saharan Africa"
    },
    "SL": {
        "name": "Sierra Leone",
        "name_ar": "سيراليون",
        "name_es": "Sierra Leona",
        "name_fr": "Sierra Leone",
        "name_ru": "Сьерра-Леоне",
        "name_zh": "塞拉利昂",
        "iso_alpha2": "SL",
        "iso_alpha3": "SLE",
        "un_m49": 694,
        "region_code": 2,
        "region": "Africa",
        "intermediate_region_code": 11,
        "intermediate_region": "Western Africa",
        "region_sub_code": 202,
        "region_sub": "Sub-Saharan Africa"
    },
    "TG": {
        "name": "Togo",
        "name_ar": "توغو",
        "name_es": "Togo",
        "name_fr": "Togo",
        "name_ru": "Того",
        "name_zh": "多哥",
        "iso_alpha2": "TG",
        "iso_alpha3": "TGO",
        "un_m49": 768,
        "region_code": 2,
        "region": "Africa",
        "intermediate_region_code": 11,
        "intermediate_region": "Western Africa",
        "region_sub_code": 202,
        "region_sub": "Sub-Saharan Africa"
    },
    "AI": {
        "name": "Anguilla",
        "name_ar": "أنغويلا",
        "name_es": "Anguila",
        "name_fr": "Anguilla",
        "name_ru": "Ангилья",
        "name_zh": "安圭拉",
        "iso_alpha2": "AI",
        "iso_alpha3": "AIA",
        "un_m49": 660,
        "region_code": 19,
        "region": "Americas",
        "intermediate_region_code": 29,
        "intermediate_region": "Caribbean",
        "region_sub_code": 419,
        "region_sub": "Latin America and the Caribbean"
    },
    "AG": {
        "name": "Antigua and Barbuda",
        "name_ar": "أنتيغوا وبربودا",
        "name_es": "Antigua y Barbuda",
        "name_fr": "Antigua-et-Barbuda",
        "name_ru": "Антигуа и Барбуда",
        "name_zh": "安提瓜和巴布达",
        "iso_alpha2": "AG",
        "iso_alpha3": "ATG",
        "un_m49": 28,
        "region_code": 19,
        "region": "Americas",
        "intermediate_region_code": 29,
        "intermediate_region": "Caribbean",
        "region_sub_code": 419,
        "region_sub": "Latin America and the Caribbean"
    },
    "AW": {
        "name": "Aruba",
        "name_ar": "أروبا",
        "name_es": "Aruba",
        "name_fr": "Aruba",
        "name_ru": "Аруба",
        "name_zh": "阿鲁巴",
        "iso_alpha2": "AW",
        "iso_alpha3": "ABW",
        "un_m49": 533,
        "region_code": 19,
        "region": "Americas",
        "intermediate_region_code": 29,
        "intermediate_region": "Caribbean",
        "region_sub_code": 419,
        "region_sub": "Latin America and the Caribbean"
    },
    "BS": {
        "name": "Bahamas",
        "name_ar": "جزر البهاما",
        "name_es": "Bahamas",
        "name_fr": "Bahamas",
        "name_ru": "Багамские Острова",
        "name_zh": "巴哈马",
        "iso_alpha2": "BS",
        "iso_alpha3": "BHS",
        "un_m49": 44,
        "region_code": 19,
        "region": "Americas",
        "intermediate_region_code": 29,
        "intermediate_region": "Caribbean",
        "region_sub_code": 419,
        "region_sub": "Latin America and the Caribbean"
    },
    "BB": {
        "name": "Barbados",
        "name_ar": "بربادوس",
        "name_es": "Barbados",
        "name_fr": "Barbade",
        "name_ru": "Барбадос",
        "name_zh": "巴巴多斯",
        "iso_alpha2": "BB",
        "iso_alpha3": "BRB",
        "un_m49": 52,
        "region_code": 19,
        "region": "Americas",
        "intermediate_region_code": 29,
        "intermediate_region": "Caribbean",
        "region_sub_code": 419,
        "region_sub": "Latin America and the Caribbean"
    },
    "BQ": {
        "name": "Bonaire, Sint Eustatius and Saba",
        "name_ar": "بونير وسانت يوستاشيوس وسابا",
        "name_es": "Bonaire, San Eustaquio y Saba",
        "name_fr": "Bonaire, Saint-Eustache et Saba",
        "name_ru": "Бонайре, Синт-Эстатиус и Саба",
        "name_zh": "博纳尔，圣俄斯塔休斯和萨巴",
        "iso_alpha2": "BQ",
        "iso_alpha3": "BES",
        "un_m49": 535,
        "region_code": 19,
        "region": "Americas",
        "intermediate_region_code": 29,
        "intermediate_region": "Caribbean",
        "region_sub_code": 419,
        "region_sub": "Latin America and the Caribbean"
    },
    "VG": {
        "name": "British Virgin Islands",
        "name_ar": "جزر فرجن البريطانية",
        "name_es": "Islas Vírgenes Británicas",
        "name_fr": "Îles Vierges britanniques",
        "name_ru": "Британские Виргинские острова",
        "name_zh": "英属维尔京群岛",
        "iso_alpha2": "VG",
        "iso_alpha3": "VGB",
        "un_m49": 92,
        "region_code": 19,
        "region": "Americas",
        "intermediate_region_code": 29,
        "intermediate_region": "Caribbean",
        "region_sub_code": 419,
        "region_sub": "Latin America and the Caribbean"
    },
    "KY": {
        "name": "Cayman Islands",
        "name_ar": "جزر كايمان",
        "name_es": "Islas Caimán",
        "name_fr": "Îles Caïmanes",
        "name_ru": "Кайман острова",
        "name_zh": "开曼群岛",
        "iso_alpha2": "KY",
        "iso_alpha3": "CYM",
        "un_m49": 136,
        "region_code": 19,
        "region": "Americas",
        "intermediate_region_code": 29,
        "intermediate_region": "Caribbean",
        "region_sub_code": 419,
        "region_sub": "Latin America and the Caribbean"
    },
    "CU": {
        "name": "Cuba",
        "name_ar": "كوبا",
        "name_es": "Cuba",
        "name_fr": "Cuba",
        "name_ru": "Куба",
        "name_zh": "古巴",
        "iso_alpha2": "CU",
        "iso_alpha3": "CUB",
        "un_m49": 192,
        "region_code": 19,
        "region": "Americas",
        "intermediate_region_code": 29,
        "intermediate_region": "Caribbean",
        "region_sub_code": 419,
        "region_sub": "Latin America and the Caribbean"
    },
    "CW": {
        "name": "Curaçao",
        "name_ar": "كوراساو",
        "name_es": "Curazao",
        "name_fr": "Curaçao",
        "name_ru": "Кюрасао",
        "name_zh": "库拉索",
        "iso_alpha2": "CW",
        "iso_alpha3": "CUW",
        "un_m49": 531,
        "region_code": 19,
        "region": "Americas",
        "intermediate_region_code": 29,
        "intermediate_region": "Caribbean",
        "region_sub_code": 419,
        "region_sub": "Latin America and the Caribbean"
    },
    "DM": {
        "name": "Dominica",
        "name_ar": "دومينيكا",
        "name_es": "Dominica",
        "name_fr": "Dominique",
        "name_ru": "Доминика",
        "name_zh": "多米尼克",
        "iso_alpha2": "DM",
        "iso_alpha3": "DMA",
        "un_m49": 212,
        "region_code": 19,
        "region": "Americas",
        "intermediate_region_code": 29,
        "intermediate_region": "Caribbean",
        "region_sub_code": 419,
        "region_sub": "Latin America and the Caribbean"
    },
    "DO": {
        "name": "Dominican Republic",
        "name_ar": "الجمهورية الدومينيكية",
        "name_es": "República Dominicana",
        "name_fr": "République dominicaine",
        "name_ru": "Доминиканская Республика",
        "name_zh": "多米尼加",
        "iso_alpha2": "DO",
        "iso_alpha3": "DOM",
        "un_m49": 214,
        "region_code": 19,
        "region": "Americas",
        "intermediate_region_code": 29,
        "intermediate_region": "Caribbean",
        "region_sub_code": 419,
        "region_sub": "Latin America and the Caribbean"
    },
    "GD": {
        "name": "Grenada",
        "name_ar": "غرينادا",
        "name_es": "Granada",
        "name_fr": "Grenade",
        "name_ru": "Гренада",
        "name_zh": "格林纳达",
        "iso_alpha2": "GD",
        "iso_alpha3": "GRD",
        "un_m49": 308,
        "region_code": 19,
        "region": "Americas",
        "intermediate_region_code": 29,
        "intermediate_region": "Caribbean",
        "region_sub_code": 419,
        "region_sub": "Latin America and the Caribbean"
    },
    "GP": {
        "name": "Guadeloupe",
        "name_ar": "غوادلوب",
        "name_es": "Guadalupe",
        "name_fr": "Guadeloupe",
        "name_ru": "Гваделупа",
        "name_zh": "瓜德罗普",
        "iso_alpha2": "GP",
        "iso_alpha3": "GLP",
        "un_m49": 312,
        "region_code": 19,
        "region": "Americas",
        "intermediate_region_code": 29,
        "intermediate_region": "Caribbean",
        "region_sub_code": 419,
        "region_sub": "Latin America and the Caribbean"
    },
    "HT": {
        "name": "Haiti",
        "name_ar": "هايتي",
        "name_es": "Haití",
        "name_fr": "Haïti",
        "name_ru": "Гаити",
        "name_zh": "海地",
        "iso_alpha2": "HT",
        "iso_alpha3": "HTI",
        "un_m49": 332,
        "region_code": 19,
        "region": "Americas",
        "intermediate_region_code": 29,
        "intermediate_region": "Caribbean",
        "region_sub_code": 419,
        "region_sub": "Latin America and the Caribbean"
    },
    "JM": {
        "name": "Jamaica",
        "name_ar": "جامايكا",
        "name_es": "Jamaica",
        "name_fr": "Jamaïque",
        "name_ru": "Ямайка",
        "name_zh": "牙买加",
        "iso_alpha2": "JM",
        "iso_alpha3": "JAM",
        "un_m49": 388,
        "region_code": 19,
        "region": "Americas",
        "intermediate_region_code": 29,
        "intermediate_region": "Caribbean",
        "region_sub_code": 419,
        "region_sub": "Latin America and the Caribbean"
    },
    "MQ": {
        "name": "Martinique",
        "name_ar": "مارتينيك",
        "name_es": "Martinica",
        "name_fr": "Martinique",
        "name_ru": "Мартиника",
        "name_zh": "马提尼克",
        "iso_alpha2": "MQ",
        "iso_alpha3": "MTQ",
        "un_m49": 474,
        "region_code": 19,
        "region": "Americas",
        "intermediate_region_code": 29,
        "intermediate_region": "Caribbean",
        "region_sub_code": 419,
        "region_sub": "Latin America and the Caribbean"
    },
    "MS": {
        "name": "Montserrat",
        "name_ar": "مونتسيرات",
        "name_es": "Montserrat",
        "name_fr": "Montserrat",
        "name_ru": "Монтсеррат",
        "name_zh": "蒙特塞拉特",
        "iso_alpha2": "MS",
        "iso_alpha3": "MSR",
        "un_m49": 500,
        "region_code": 19,
        "region": "Americas",
        "intermediate_region_code": 29,
        "intermediate_region": "Caribbean",
        "region_sub_code": 419,
        "region_sub": "Latin America and the Caribbean"
    },
    "PR": {
        "name": "Puerto Rico",
        "name_ar": "بورتوريكو",
        "name_es": "Puerto Rico",
        "name_fr": "Porto Rico",
        "name_ru": "Пуэрто-Рико",
        "name_zh": "波多黎各",
        "iso_alpha2": "PR",
        "iso_alpha3": "PRI",
        "un_m49": 630,
        "region_code": 19,
        "region": "Americas",
        "intermediate_region_code": 29,
        "intermediate_region": "Caribbean",
        "region_sub_code": 419,
        "region_sub": "Latin America and the Caribbean"
    },
    "BL": {
        "name": "Saint Barthélemy",
        "name_ar": "سان بارتليمي",
        "name_es": "San Barthélemy",
        "name_fr": "Saint-Barthélemy",
        "name_ru": "Сен-Бартелеми",
        "name_zh": "圣巴泰勒米",
        "iso_alpha2": "BL",
        "iso_alpha3": "BLM",
        "un_m49": 652,
        "region_code": 19,
        "region": "Americas",
        "intermediate_region_code": 29,
        "intermediate_region": "Caribbean",
        "region_sub_code": 419,
        "region_sub": "Latin America and the Caribbean"
    },
    "KN": {
        "name": "Saint Kitts and Nevis",
        "name_ar": "سانت كيتس ونيفس",
        "name_es": "Saint Kitts y Nevis",
        "name_fr": "Saint-Kitts-et-Nevis",
        "name_ru": "Сент-Китс и Невис",
        "name_zh": "圣基茨和尼维斯",
        "iso_alpha2": "KN",
        "iso_alpha3": "KNA",
        "un_m49": 659,
        "region_code": 19,
        "region": "Americas",
        "intermediate_region_code": 29,
        "intermediate_region": "Caribbean",
        "region_sub_code": 419,
        "region_sub": "Latin America and the Caribbean"
    },
    "LC": {
        "name": "Saint Lucia",
        "name_ar": "سانت لوسيا",
        "name_es": "Santa Lucía",
        "name_fr": "Sainte-Lucie",
        "name_ru": "Сент-Люсия",
        "name_zh": "圣卢西亚",
        "iso_alpha2": "LC",
        "iso_alpha3": "LCA",
        "un_m49": 662,
        "region_code": 19,
        "region": "Americas",
        "intermediate_region_code": 29,
        "intermediate_region": "Caribbean",
        "region_sub_code": 419,
        "region_sub": "Latin America and the Caribbean"
    },
    "MF": {
        "name": "Saint Martin (French Part)",
        "name_ar": "سانت مارتن (الجزء الفرنسي)",
        "name_es": "San Martín (parte francesa)",
        "name_fr": "Saint-Martin (partie française)",
        "name_ru": "Сен-Мартен (французская часть)",
        "name_zh": "圣马丁（法属）",
        "iso_alpha2": "MF",
        "iso_alpha3": "MAF",
        "un_m49": 663,
        "region_code": 19,
        "region": "Americas",
        "intermediate_region_code": 29,
        "intermediate_region": "Caribbean",
        "region_sub_code": 419,
        "region_sub": "Latin America and the Caribbean"
    },
    "VC": {
        "name": "Saint Vincent and the Grenadines",
        "name_ar": "سانت فنسنت وجزر غرينادين",
        "name_es": "San Vicente y las Granadinas",
        "name_fr": "Saint-Vincent-et-les Grenadines",
        "name_ru": "Сент-Винсент и Гренадины",
        "name_zh": "圣文森特和格林纳丁斯",
        "iso_alpha2": "VC",
        "iso_alpha3": "VCT",
        "un_m49": 670,
        "region_code": 19,
        "region": "Americas",
        "intermediate_region_code": 29,
        "intermediate_region": "Caribbean",
        "region_sub_code": 419,
        "region_sub": "Latin America and the Caribbean"
    },
    "SX": {
        "name": "Sint Maarten (Dutch part)",
        "name_ar": "سانت مارتن (الجزء الهولندي)",
        "name_es": "San Martín (parte Holandesa)",
        "name_fr": "Saint-Martin (partie néerlandaise)",
        "name_ru": "Синт-Мартен (нидерландская часть)",
        "name_zh": "圣马丁（荷属）",
        "iso_alpha2": "SX",
        "iso_alpha3": "SXM",
        "un_m49": 534,
        "region_code": 19,
        "region": "Americas",
        "intermediate_region_code": 29,
        "intermediate_region": "Caribbean",
        "region_sub_code": 419,
        "region_sub": "Latin America and the Caribbean"
    },
    "TT": {
        "name": "Trinidad and Tobago",
        "name_ar": "ترينيداد وتوباغو",
        "name_es": "Trinidad y Tabago",
        "name_fr": "Trinité-et-Tobago",
        "name_ru": "Тринидад и Тобаго",
        "name_zh": "特立尼达和多巴哥",
        "iso_alpha2": "TT",
        "iso_alpha3": "TTO",
        "un_m49": 780,
        "region_code": 19,
        "region": "Americas",
        "intermediate_region_code": 29,
        "intermediate_region": "Caribbean",
        "region_sub_code": 419,
        "region_sub": "Latin America and the Caribbean"
    },
    "TC": {
        "name": "Turks and Caicos Islands",
        "name_ar": "جزر تركس وكايكوس",
        "name_es": "Islas Turcas y Caicos",
        "name_fr": "Îles Turques-et-Caïques",
        "name_ru": "Острова Теркс и Кайкос",
        "name_zh": "特克斯和凯科斯群岛",
        "iso_alpha2": "TC",
        "iso_alpha3": "TCA",
        "un_m49": 796,
        "region_code": 19,
        "region": "Americas",
        "intermediate_region_code": 29,
        "intermediate_region": "Caribbean",
        "region_sub_code": 419,
        "region_sub": "Latin America and the Caribbean"
    },
    "VI": {
        "name": "United States Virgin Islands",
        "name_ar": "جزر فرجن التابعة للولايات المتحدة",
        "name_es": "Islas Vírgenes de los Estados Unidos",
        "name_fr": "Îles Vierges américaines",
        "name_ru": "Виргинские острова Соединенных Штатов",
        "name_zh": "美属维尔京群岛",
        "iso_alpha2": "VI",
        "iso_alpha3": "VIR",
        "un_m49": 850,
        "region_code": 19,
        "region": "Americas",
        "intermediate_region_code": 29,
        "intermediate_region": "Caribbean",
        "region_sub_code": 419,
        "region_sub": "Latin America and the Caribbean"
    },
    "BZ": {
        "name": "Belize",
        "name_ar": "بليز",
        "name_es": "Belice",
        "name_fr": "Belize",
        "name_ru": "Белиз",
        "name_zh": "伯利兹",
        "iso_alpha2": "BZ",
        "iso_alpha3": "BLZ",
        "un_m49": 84,
        "region_code": 19,
        "region": "Americas",
        "intermediate_region_code": 13,
        "intermediate_region": "Central America",
        "region_sub_code": 419,
        "region_sub": "Latin America and the Caribbean"
    },
    "CR": {
        "name": "Costa Rica",
        "name_ar": "كوستاريكا",
        "name_es": "Costa Rica",
        "name_fr": "Costa Rica",
        "name_ru": "Коста-Рика",
        "name_zh": "哥斯达黎加",
        "iso_alpha2": "CR",
        "iso_alpha3": "CRI",
        "un_m49": 188,
        "region_code": 19,
        "region": "Americas",
        "intermediate_region_code": 13,
        "intermediate_region": "Central America",
        "region_sub_code": 419,
        "region_sub": "Latin America and the Caribbean"
    },
    "SV": {
        "name": "El Salvador",
        "name_ar": "السلفادور",
        "name_es": "El Salvador",
        "name_fr": "El Salvador",
        "name_ru": "Сальвадор",
        "name_zh": "萨尔瓦多",
        "iso_alpha2": "SV",
        "iso_alpha3": "SLV",
        "un_m49": 222,
        "region_code": 19,
        "region": "Americas",
        "intermediate_region_code": 13,
        "intermediate_region": "Central America",
        "region_sub_code": 419,
        "region_sub": "Latin America and the Caribbean"
    },
    "GT": {
        "name": "Guatemala",
        "name_ar": "غواتيمالا",
        "name_es": "Guatemala",
        "name_fr": "Guatemala",
        "name_ru": "Гватемала",
        "name_zh": "危地马拉",
        "iso_alpha2": "GT",
        "iso_alpha3": "GTM",
        "un_m49": 320,
        "region_code": 19,
        "region": "Americas",
        "intermediate_region_code": 13,
        "intermediate_region": "Central America",
        "region_sub_code": 419,
        "region_sub": "Latin America and the Caribbean"
    },
    "HN": {
        "name": "Honduras",
        "name_ar": "هندوراس",
        "name_es": "Honduras",
        "name_fr": "Honduras",
        "name_ru": "Гондурас",
        "name_zh": "洪都拉斯",
        "iso_alpha2": "HN",
        "iso_alpha3": "HND",
        "un_m49": 340,
        "region_code": 19,
        "region": "Americas",
        "intermediate_region_code": 13,
        "intermediate_region": "Central America",
        "region_sub_code": 419,
        "region_sub": "Latin America and the Caribbean"
    },
    "MX": {
        "name": "Mexico",
        "name_ar": "المكسيك",
        "name_es": "México",
        "name_fr": "Mexique",
        "name_ru": "Мексика",
        "name_zh": "墨西哥",
        "iso_alpha2": "MX",
        "iso_alpha3": "MEX",
        "un_m49": 484,
        "region_code": 19,
        "region": "Americas",
        "intermediate_region_code": 13,
        "intermediate_region": "Central America",
        "region_sub_code": 419,
        "region_sub": "Latin America and the Caribbean"
    },
    "NI": {
        "name": "Nicaragua",
        "name_ar": "نيكاراغوا",
        "name_es": "Nicaragua",
        "name_fr": "Nicaragua",
        "name_ru": "Никарагуа",
        "name_zh": "尼加拉瓜",
        "iso_alpha2": "NI",
        "iso_alpha3": "NIC",
        "un_m49": 558,
        "region_code": 19,
        "region": "Americas",
        "intermediate_region_code": 13,
        "intermediate_region": "Central America",
        "region_sub_code": 419,
        "region_sub": "Latin America and the Caribbean"
    },
    "PA": {
        "name": "Panama",
        "name_ar": "بنما",
        "name_es": "Panamá",
        "name_fr": "Panama",
        "name_ru": "Панама",
        "name_zh": "巴拿马",
        "iso_alpha2": "PA",
        "iso_alpha3": "PAN",
        "un_m49": 591,
        "region_code": 19,
        "region": "Americas",
        "intermediate_region_code": 13,
        "intermediate_region": "Central America",
        "region_sub_code": 419,
        "region_sub": "Latin America and the Caribbean"
    },
    "AR": {
        "name": "Argentina",
        "name_ar": "الأرجنتين",
        "name_es": "Argentina",
        "name_fr": "Argentine",
        "name_ru": "Аргентина",
        "name_zh": "阿根廷",
        "iso_alpha2": "AR",
        "iso_alpha3": "ARG",
        "un_m49": 32,
        "region_code": 19,
        "region": "Americas",
        "intermediate_region_code": 5,
        "intermediate_region": "South America",
        "region_sub_code": 419,
        "region_sub": "Latin America and the Caribbean"
    },
    "BO": {
        "name": "Bolivia (Plurinational State of)",
        "name_ar": "بوليفيا (دولة - المتعددة القوميات)",
        "name_es": "Bolivia (Estado Plurinacional de)",
        "name_fr": "Bolivie (État plurinational de)",
        "name_ru": "Боливия (Многонациональное Государство)",
        "name_zh": "多民族玻利维亚国",
        "iso_alpha2": "BO",
        "iso_alpha3": "BOL",
        "un_m49": 68,
        "region_code": 19,
        "region": "Americas",
        "intermediate_region_code": 5,
        "intermediate_region": "South America",
        "region_sub_code": 419,
        "region_sub": "Latin America and the Caribbean"
    },
    "BV": {
        "name": "Bouvet Island",
        "name_ar": "جزيرة بوفيت",
        "name_es": "Isla Bouvet",
        "name_fr": "Île Bouvet",
        "name_ru": "Остров Буве",
        "name_zh": "布维岛",
        "iso_alpha2": "BV",
        "iso_alpha3": "BVT",
        "un_m49": 74,
        "region_code": 19,
        "region": "Americas",
        "intermediate_region_code": 5,
        "intermediate_region": "South America",
        "region_sub_code": 419,
        "region_sub": "Latin America and the Caribbean"
    },
    "BR": {
        "name": "Brazil",
        "name_ar": "البرازيل",
        "name_es": "Brasil",
        "name_fr": "Brésil",
        "name_ru": "Бразилия",
        "name_zh": "巴西",
        "iso_alpha2": "BR",
        "iso_alpha3": "BRA",
        "un_m49": 76,
        "region_code": 19,
        "region": "Americas",
        "intermediate_region_code": 5,
        "intermediate_region": "South America",
        "region_sub_code": 419,
        "region_sub": "Latin America and the Caribbean"
    },
    "CL": {
        "name": "Chile",
        "name_ar": "شيلي",
        "name_es": "Chile",
        "name_fr": "Chili",
        "name_ru": "Чили",
        "name_zh": "智利",
        "iso_alpha2": "CL",
        "iso_alpha3": "CHL",
        "un_m49": 152,
        "region_code": 19,
        "region": "Americas",
        "intermediate_region_code": 5,
        "intermediate_region": "South America",
        "region_sub_code": 419,
        "region_sub": "Latin America and the Caribbean"
    },
    "CO": {
        "name": "Colombia",
        "name_ar": "كولومبيا",
        "name_es": "Colombia",
        "name_fr": "Colombie",
        "name_ru": "Колумбия",
        "name_zh": "哥伦比亚",
        "iso_alpha2": "CO",
        "iso_alpha3": "COL",
        "un_m49": 170,
        "region_code": 19,
        "region": "Americas",
        "intermediate_region_code": 5,
        "intermediate_region": "South America",
        "region_sub_code": 419,
        "region_sub": "Latin America and the Caribbean"
    },
    "EC": {
        "name": "Ecuador",
        "name_ar": "إكوادور",
        "name_es": "Ecuador",
        "name_fr": "Équateur",
        "name_ru": "Эквадор",
        "name_zh": "厄瓜多尔",
        "iso_alpha2": "EC",
        "iso_alpha3": "ECU",
        "un_m49": 218,
        "region_code": 19,
        "region": "Americas",
        "intermediate_region_code": 5,
        "intermediate_region": "South America",
        "region_sub_code": 419,
        "region_sub": "Latin America and the Caribbean"
    },
    "FK": {
        "name": "Falkland Islands (Malvinas)",
        "name_ar": "جزر فوكلاند (مالفيناس)",
        "name_es": "Islas Malvinas (Falkland)",
        "name_fr": "Îles Falkland (Malvinas)",
        "name_ru": "Фолклендские (Мальвинские) острова",
        "name_zh": "福克兰群岛（马尔维纳斯）",
        "iso_alpha2": "FK",
        "iso_alpha3": "FLK",
        "un_m49": 238,
        "region_code": 19,
        "region": "Americas",
        "intermediate_region_code": 5,
        "intermediate_region": "South America",
        "region_sub_code": 419,
        "region_sub": "Latin America and the Caribbean"
    },
    "GF": {
        "name": "French Guiana",
        "name_ar": "غيانا الفرنسية",
        "name_es": "Guayana Francesa",
        "name_fr": "Guyane française",
        "name_ru": "Французская Гвиана",
        "name_zh": "法属圭亚那",
        "iso_alpha2": "GF",
        "iso_alpha3": "GUF",
        "un_m49": 254,
        "region_code": 19,
        "region": "Americas",
        "intermediate_region_code": 5,
        "intermediate_region": "South America",
        "region_sub_code": 419,
        "region_sub": "Latin America and the Caribbean"
    },
    "GY": {
        "name": "Guyana",
        "name_ar": "غيانا",
        "name_es": "Guyana",
        "name_fr": "Guyana",
        "name_ru": "Гайана",
        "name_zh": "圭亚那",
        "iso_alpha2": "GY",
        "iso_alpha3": "GUY",
        "un_m49": 328,
        "region_code": 19,
        "region": "Americas",
        "intermediate_region_code": 5,
        "intermediate_region": "South America",
        "region_sub_code": 419,
        "region_sub": "Latin America and the Caribbean"
    },
    "PY": {
        "name": "Paraguay",
        "name_ar": "باراغواي",
        "name_es": "Paraguay",
        "name_fr": "Paraguay",
        "name_ru": "Парагвай",
        "name_zh": "巴拉圭",
        "iso_alpha2": "PY",
        "iso_alpha3": "PRY",
        "un_m49": 600,
        "region_code": 19,
        "region": "Americas",
        "intermediate_region_code": 5,
        "intermediate_region": "South America",
        "region_sub_code": 419,
        "region_sub": "Latin America and the Caribbean"
    },
    "PE": {
        "name": "Peru",
        "name_ar": "بيرو",
        "name_es": "Perú",
        "name_fr": "Pérou",
        "name_ru": "Перу",
        "name_zh": "秘鲁",
        "iso_alpha2": "PE",
        "iso_alpha3": "PER",
        "un_m49": 604,
        "region_code": 19,
        "region": "Americas",
        "intermediate_region_code": 5,
        "intermediate_region": "South America",
        "region_sub_code": 419,
        "region_sub": "Latin America and the Caribbean"
    },
    "GS": {
        "name": "South Georgia and the South Sandwich Islands",
        "name_ar": "جورجيا الجنوبية وجزر ساندويتش الجنوبية",
        "name_es": "Georgia del Sur y las Islas Sandwich del Sur",
        "name_fr": "Géorgie du Sud-et-les Îles Sandwich du Sud",
        "name_ru": "Южная Джорджия и Южные Сандвичевы острова",
        "name_zh": "南乔治亚岛和南桑德韦奇岛",
        "iso_alpha2": "GS",
        "iso_alpha3": "SGS",
        "un_m49": 239,
        "region_code": 19,
        "region": "Americas",
        "intermediate_region_code": 5,
        "intermediate_region": "South America",
        "region_sub_code": 419,
        "region_sub": "Latin America and the Caribbean"
    },
    "SR": {
        "name": "Suriname",
        "name_ar": "سورينام",
        "name_es": "Suriname",
        "name_fr": "Suriname",
        "name_ru": "Суринам",
        "name_zh": "苏里南",
        "iso_alpha2": "SR",
        "iso_alpha3": "SUR",
        "un_m49": 740,
        "region_code": 19,
        "region": "Americas",
        "intermediate_region_code": 5,
        "intermediate_region": "South America",
        "region_sub_code": 419,
        "region_sub": "Latin America and the Caribbean"
    },
    "UY": {
        "name": "Uruguay",
        "name_ar": "أوروغواي",
        "name_es": "Uruguay",
        "name_fr": "Uruguay",
        "name_ru": "Уругвай",
        "name_zh": "乌拉圭",
        "iso_alpha2": "UY",
        "iso_alpha3": "URY",
        "un_m49": 858,
        "region_code": 19,
        "region": "Americas",
        "intermediate_region_code": 5,
        "intermediate_region": "South America",
        "region_sub_code": 419,
        "region_sub": "Latin America and the Caribbean"
    },
    "VE": {
        "name": "Venezuela (Bolivarian Republic of)",
        "name_ar": "فنزويلا (جمهورية - البوليفارية)",
        "name_es": "Venezuela (República Bolivariana de)",
        "name_fr": "Venezuela (République bolivarienne du)",
        "name_ru": "Венесуэла (Боливарианская Республика)",
        "name_zh": "委内瑞拉玻利瓦尔共和国",
        "iso_alpha2": "VE",
        "iso_alpha3": "VEN",
        "un_m49": 862,
        "region_code": 19,
        "region": "Americas",
        "intermediate_region_code": 5,
        "intermediate_region": "South America",
        "region_sub_code": 419,
        "region_sub": "Latin America and the Caribbean"
    },
    "BM": {
        "name": "Bermuda",
        "name_ar": "برمودا",
        "name_es": "Bermuda",
        "name_fr": "Bermudes",
        "name_ru": "Бермудские острова",
        "name_zh": "百慕大",
        "iso_alpha2": "BM",
        "iso_alpha3": "BMU",
        "un_m49": 60,
        "region_code": 19,
        "region": "Americas",
        "region_sub_code": 21,
        "region_sub": "Northern America"
    },
    "CA": {
        "name": "Canada",
        "name_ar": "كندا",
        "name_es": "Canadá",
        "name_fr": "Canada",
        "name_ru": "Канада",
        "name_zh": "加拿大",
        "iso_alpha2": "CA",
        "iso_alpha3": "CAN",
        "un_m49": 124,
        "region_code": 19,
        "region": "Americas",
        "region_sub_code": 21,
        "region_sub": "Northern America"
    },
    "GL": {
        "name": "Greenland",
        "name_ar": "غرينلند",
        "name_es": "Groenlandia",
        "name_fr": "Groenland",
        "name_ru": "Гренландия",
        "name_zh": "格陵兰",
        "iso_alpha2": "GL",
        "iso_alpha3": "GRL",
        "un_m49": 304,
        "region_code": 19,
        "region": "Americas",
        "region_sub_code": 21,
        "region_sub": "Northern America"
    },
    "PM": {
        "name": "Saint Pierre and Miquelon",
        "name_ar": "سان بيير وميكلون",
        "name_es": "San Pedro y Miquelón",
        "name_fr": "Saint-Pierre-et-Miquelon",
        "name_ru": "Сен-Пьер и Микелон",
        "name_zh": "圣皮埃尔和密克隆",
        "iso_alpha2": "PM",
        "iso_alpha3": "SPM",
        "un_m49": 666,
        "region_code": 19,
        "region": "Americas",
        "region_sub_code": 21,
        "region_sub": "Northern America"
    },
    "US": {
        "name": "United States of America",
        "name_ar": "الولايات المتحدة الأمريكية",
        "name_es": "Estados Unidos de América",
        "name_fr": "États-Unis d’Amérique",
        "name_ru": "Соединенные Штаты Америки",
        "name_zh": "美利坚合众国",
        "iso_alpha2": "US",
        "iso_alpha3": "USA",
        "un_m49": 840,
        "region_code": 19,
        "region": "Americas",
        "region_sub_code": 21,
        "region_sub": "Northern America"
    },
    "AQ": {
        "name": "Antarctica",
        "name_ar": "أنتاركتيكا",
        "name_es": "Antártida",
        "name_fr": "Antarctique",
        "name_ru": "Антарктике",
        "name_zh": "南极洲",
        "iso_alpha2": "AQ",
        "iso_alpha3": "ATA",
        "un_m49": 10
    },
    "KZ": {
        "name": "Kazakhstan",
        "name_ar": "كازاخستان",
        "name_es": "Kazajstán",
        "name_fr": "Kazakhstan",
        "name_ru": "Казахстан",
        "name_zh": "哈萨克斯坦",
        "iso_alpha2": "KZ",
        "iso_alpha3": "KAZ",
        "un_m49": 398,
        "region_code": 142,
        "region": "Asia",
        "region_sub_code": 143,
        "region_sub": "Central Asia"
    },
    "KG": {
        "name": "Kyrgyzstan",
        "name_ar": "قيرغيزستان",
        "name_es": "Kirguistán",
        "name_fr": "Kirghizistan",
        "name_ru": "Кыргызстан",
        "name_zh": "吉尔吉斯斯坦",
        "iso_alpha2": "KG",
        "iso_alpha3": "KGZ",
        "un_m49": 417,
        "region_code": 142,
        "region": "Asia",
        "region_sub_code": 143,
        "region_sub": "Central Asia"
    },
    "TJ": {
        "name": "Tajikistan",
        "name_ar": "طاجيكستان",
        "name_es": "Tayikistán",
        "name_fr": "Tadjikistan",
        "name_ru": "Таджикистан",
        "name_zh": "塔吉克斯坦",
        "iso_alpha2": "TJ",
        "iso_alpha3": "TJK",
        "un_m49": 762,
        "region_code": 142,
        "region": "Asia",
        "region_sub_code": 143,
        "region_sub": "Central Asia"
    },
    "TM": {
        "name": "Turkmenistan",
        "name_ar": "تركمانستان",
        "name_es": "Turkmenistán",
        "name_fr": "Turkménistan",
        "name_ru": "Туркменистан",
        "name_zh": "土库曼斯坦",
        "iso_alpha2": "TM",
        "iso_alpha3": "TKM",
        "un_m49": 795,
        "region_code": 142,
        "region": "Asia",
        "region_sub_code": 143,
        "region_sub": "Central Asia"
    },
    "UZ": {
        "name": "Uzbekistan",
        "name_ar": "أوزبكستان",
        "name_es": "Uzbekistán",
        "name_fr": "Ouzbékistan",
        "name_ru": "Узбекистан",
        "name_zh": "乌兹别克斯坦",
        "iso_alpha2": "UZ",
        "iso_alpha3": "UZB",
        "un_m49": 860,
        "region_code": 142,
        "region": "Asia",
        "region_sub_code": 143,
        "region_sub": "Central Asia"
    },
    "CN": {
        "name": "China",
        "name_ar": "الصين",
        "name_es": "China",
        "name_fr": "Chine",
        "name_ru": "Китай",
        "name_zh": "中国",
        "iso_alpha2": "CN",
        "iso_alpha3": "CHN",
        "un_m49": 156,
        "region_code": 142,
        "region": "Asia",
        "region_sub_code": 30,
        "region_sub": "Eastern Asia"
    },
    "HK": {
        "name": "China, Hong Kong Special Administrative Region",
        "name_ar": "الصين، منطقة هونغ كونغ الإدارية الخاصة",
        "name_es": "China, región administrativa especial de Hong Kong",
        "name_fr": "Chine, région administrative spéciale de Hong Kong",
        "name_ru": "Китай, Специальный административный район Гонконг",
        "name_zh": "中国香港特别行政区",
        "iso_alpha2": "HK",
        "iso_alpha3": "HKG",
        "un_m49": 344,
        "region_code": 142,
        "region": "Asia",
        "region_sub_code": 30,
        "region_sub": "Eastern Asia"
    },
    "MO": {
        "name": "China, Macao Special Administrative Region",
        "name_ar": "الصين، منطقة ماكاو الإدارية الخاصة",
        "name_es": "China, región administrativa especial de Macao",
        "name_fr": "Chine, région administrative spéciale de Macao",
        "name_ru": "Китай, Специальный административный район Макао",
        "name_zh": "中国澳门特别行政区",
        "iso_alpha2": "MO",
        "iso_alpha3": "MAC",
        "un_m49": 446,
        "region_code": 142,
        "region": "Asia",
        "region_sub_code": 30,
        "region_sub": "Eastern Asia"
    },
    "KP": {
        "name": "Democratic People's Republic of Korea",
        "name_ar": "جمهورية كوريا الشعبية الديمقراطية",
        "name_es": "República Popular Democrática de Corea",
        "name_fr": "République populaire démocratique de Corée",
        "name_ru": "Корейская Народно-Демократическая Республика",
        "name_zh": "朝鲜民主主义人民共和国",
        "iso_alpha2": "KP",
        "iso_alpha3": "PRK",
        "un_m49": 408,
        "region_code": 142,
        "region": "Asia",
        "region_sub_code": 30,
        "region_sub": "Eastern Asia"
    },
    "JP": {
        "name": "Japan",
        "name_ar": "اليابان",
        "name_es": "Japón",
        "name_fr": "Japon",
        "name_ru": "Япония",
        "name_zh": "日本",
        "iso_alpha2": "JP",
        "iso_alpha3": "JPN",
        "un_m49": 392,
        "region_code": 142,
        "region": "Asia",
        "region_sub_code": 30,
        "region_sub": "Eastern Asia"
    },
    "MN": {
        "name": "Mongolia",
        "name_ar": "منغوليا",
        "name_es": "Mongolia",
        "name_fr": "Mongolie",
        "name_ru": "Монголия",
        "name_zh": "蒙古",
        "iso_alpha2": "MN",
        "iso_alpha3": "MNG",
        "un_m49": 496,
        "region_code": 142,
        "region": "Asia",
        "region_sub_code": 30,
        "region_sub": "Eastern Asia"
    },
    "KR": {
        "name": "Republic of Korea",
        "name_ar": "جمهورية كوريا",
        "name_es": "República de Corea",
        "name_fr": "République de Corée",
        "name_ru": "Республика Корея",
        "name_zh": "大韩民国",
        "iso_alpha2": "KR",
        "iso_alpha3": "KOR",
        "un_m49": 410,
        "region_code": 142,
        "region": "Asia",
        "region_sub_code": 30,
        "region_sub": "Eastern Asia"
    },
    "BN": {
        "name": "Brunei Darussalam",
        "name_ar": "بروني دار السلام",
        "name_es": "Brunei Darussalam",
        "name_fr": "Brunéi Darussalam",
        "name_ru": "Бруней-Даруссалам",
        "name_zh": "文莱达鲁萨兰国",
        "iso_alpha2": "BN",
        "iso_alpha3": "BRN",
        "un_m49": 96,
        "region_code": 142,
        "region": "Asia",
        "region_sub_code": 35,
        "region_sub": "South-eastern Asia"
    },
    "KH": {
        "name": "Cambodia",
        "name_ar": "كمبوديا",
        "name_es": "Camboya",
        "name_fr": "Cambodge",
        "name_ru": "Камбоджа",
        "name_zh": "柬埔寨",
        "iso_alpha2": "KH",
        "iso_alpha3": "KHM",
        "un_m49": 116,
        "region_code": 142,
        "region": "Asia",
        "region_sub_code": 35,
        "region_sub": "South-eastern Asia"
    },
    "ID": {
        "name": "Indonesia",
        "name_ar": "إندونيسيا",
        "name_es": "Indonesia",
        "name_fr": "Indonésie",
        "name_ru": "Индонезия",
        "name_zh": "印度尼西亚",
        "iso_alpha2": "ID",
        "iso_alpha3": "IDN",
        "un_m49": 360,
        "region_code": 142,
        "region": "Asia",
        "region_sub_code": 35,
        "region_sub": "South-eastern Asia"
    },
    "LA": {
        "name": "Lao People's Democratic Republic",
        "name_ar": "جمهورية لاو الديمقراطية الشعبية",
        "name_es": "República Democrática Popular Lao",
        "name_fr": "République démocratique populaire lao",
        "name_ru": "Лаосская Народно-Демократическая Республика",
        "name_zh": "老挝人民民主共和国",
        "iso_alpha2": "LA",
        "iso_alpha3": "LAO",
        "un_m49": 418,
        "region_code": 142,
        "region": "Asia",
        "region_sub_code": 35,
        "region_sub": "South-eastern Asia"
    },
    "MY": {
        "name": "Malaysia",
        "name_ar": "ماليزيا",
        "name_es": "Malasia",
        "name_fr": "Malaisie",
        "name_ru": "Малайзия",
        "name_zh": "马来西亚",
        "iso_alpha2": "MY",
        "iso_alpha3": "MYS",
        "un_m49": 458,
        "region_code": 142,
        "region": "Asia",
        "region_sub_code": 35,
        "region_sub": "South-eastern Asia"
    },
    "MM": {
        "name": "Myanmar",
        "name_ar": "ميانمار",
        "name_es": "Myanmar",
        "name_fr": "Myanmar",
        "name_ru": "Мьянма",
        "name_zh": "缅甸",
        "iso_alpha2": "MM",
        "iso_alpha3": "MMR",
        "un_m49": 104,
        "region_code": 142,
        "region": "Asia",
        "region_sub_code": 35,
        "region_sub": "South-eastern Asia"
    },
    "PH": {
        "name": "Philippines",
        "name_ar": "الفلبين",
        "name_es": "Filipinas",
        "name_fr": "Philippines",
        "name_ru": "Филиппины",
        "name_zh": "菲律宾",
        "iso_alpha2": "PH",
        "iso_alpha3": "PHL",
        "un_m49": 608,
        "region_code": 142,
        "region": "Asia",
        "region_sub_code": 35,
        "region_sub": "South-eastern Asia"
    },
    "SG": {
        "name": "Singapore",
        "name_ar": "سنغافورة",
        "name_es": "Singapur",
        "name_fr": "Singapour",
        "name_ru": "Сингапур",
        "name_zh": "新加坡",
        "iso_alpha2": "SG",
        "iso_alpha3": "SGP",
        "un_m49": 702,
        "region_code": 142,
        "region": "Asia",
        "region_sub_code": 35,
        "region_sub": "South-eastern Asia"
    },
    "TH": {
        "name": "Thailand",
        "name_ar": "تايلند",
        "name_es": "Tailandia",
        "name_fr": "Thaïlande",
        "name_ru": "Таиланд",
        "name_zh": "泰国",
        "iso_alpha2": "TH",
        "iso_alpha3": "THA",
        "un_m49": 764,
        "region_code": 142,
        "region": "Asia",
        "region_sub_code": 35,
        "region_sub": "South-eastern Asia"
    },
    "TL": {
        "name": "Timor-Leste",
        "name_ar": "تيمور - ليشتي",
        "name_es": "Timor-Leste",
        "name_fr": "Timor-Leste",
        "name_ru": "Тимор-Лешти",
        "name_zh": "东帝汶",
        "iso_alpha2": "TL",
        "iso_alpha3": "TLS",
        "un_m49": 626,
        "region_code": 142,
        "region": "Asia",
        "region_sub_code": 35,
        "region_sub": "South-eastern Asia"
    },
    "VN": {
        "name": "Viet Nam",
        "name_ar": "فييت نام",
        "name_es": "Viet Nam",
        "name_fr": "Viet Nam",
        "name_ru": "Вьетнам",
        "name_zh": "越南",
        "iso_alpha2": "VN",
        "iso_alpha3": "VNM",
        "un_m49": 704,
        "region_code": 142,
        "region": "Asia",
        "region_sub_code": 35,
        "region_sub": "South-eastern Asia"
    },
    "AF": {
        "name": "Afghanistan",
        "name_ar": "أفغانستان",
        "name_es": "Afganistán",
        "name_fr": "Afghanistan",
        "name_ru": "Афганистан",
        "name_zh": "阿富汗",
        "iso_alpha2": "AF",
        "iso_alpha3": "AFG",
        "un_m49": 4,
        "region_code": 142,
        "region": "Asia",
        "region_sub_code": 34,
        "region_sub": "Southern Asia"
    },
    "BD": {
        "name": "Bangladesh",
        "name_ar": "بنغلاديش",
        "name_es": "Bangladesh",
        "name_fr": "Bangladesh",
        "name_ru": "Бангладеш",
        "name_zh": "孟加拉国",
        "iso_alpha2": "BD",
        "iso_alpha3": "BGD",
        "un_m49": 50,
        "region_code": 142,
        "region": "Asia",
        "region_sub_code": 34,
        "region_sub": "Southern Asia"
    },
    "BT": {
        "name": "Bhutan",
        "name_ar": "بوتان",
        "name_es": "Bhután",
        "name_fr": "Bhoutan",
        "name_ru": "Бутан",
        "name_zh": "不丹",
        "iso_alpha2": "BT",
        "iso_alpha3": "BTN",
        "un_m49": 64,
        "region_code": 142,
        "region": "Asia",
        "region_sub_code": 34,
        "region_sub": "Southern Asia"
    },
    "IN": {
        "name": "India",
        "name_ar": "الهند",
        "name_es": "India",
        "name_fr": "Inde",
        "name_ru": "Индия",
        "name_zh": "印度",
        "iso_alpha2": "IN",
        "iso_alpha3": "IND",
        "un_m49": 356,
        "region_code": 142,
        "region": "Asia",
        "region_sub_code": 34,
        "region_sub": "Southern Asia"
    },
    "IR": {
        "name": "Iran (Islamic Republic of)",
        "name_ar": "إيران (جمهورية - الإسلامية)",
        "name_es": "Irán (República Islámica del)",
        "name_fr": "Iran (République islamique d’)",
        "name_ru": "Иран (Исламская Республика)",
        "name_zh": "伊朗伊斯兰共和国",
        "iso_alpha2": "IR",
        "iso_alpha3": "IRN",
        "un_m49": 364,
        "region_code": 142,
        "region": "Asia",
        "region_sub_code": 34,
        "region_sub": "Southern Asia"
    },
    "MV": {
        "name": "Maldives",
        "name_ar": "ملديف",
        "name_es": "Maldivas",
        "name_fr": "Maldives",
        "name_ru": "Мальдивские Острова",
        "name_zh": "马尔代夫",
        "iso_alpha2": "MV",
        "iso_alpha3": "MDV",
        "un_m49": 462,
        "region_code": 142,
        "region": "Asia",
        "region_sub_code": 34,
        "region_sub": "Southern Asia"
    },
    "NP": {
        "name": "Nepal",
        "name_ar": "نيبال",
        "name_es": "Nepal",
        "name_fr": "Népal",
        "name_ru": "Непал",
        "name_zh": "尼泊尔",
        "iso_alpha2": "NP",
        "iso_alpha3": "NPL",
        "un_m49": 524,
        "region_code": 142,
        "region": "Asia",
        "region_sub_code": 34,
        "region_sub": "Southern Asia"
    },
    "PK": {
        "name": "Pakistan",
        "name_ar": "باكستان",
        "name_es": "Pakistán",
        "name_fr": "Pakistan",
        "name_ru": "Пакистан",
        "name_zh": "巴基斯坦",
        "iso_alpha2": "PK",
        "iso_alpha3": "PAK",
        "un_m49": 586,
        "region_code": 142,
        "region": "Asia",
        "region_sub_code": 34,
        "region_sub": "Southern Asia"
    },
    "LK": {
        "name": "Sri Lanka",
        "name_ar": "سري لانكا",
        "name_es": "Sri Lanka",
        "name_fr": "Sri Lanka",
        "name_ru": "Шри-Ланка",
        "name_zh": "斯里兰卡",
        "iso_alpha2": "LK",
        "iso_alpha3": "LKA",
        "un_m49": 144,
        "region_code": 142,
        "region": "Asia",
        "region_sub_code": 34,
        "region_sub": "Southern Asia"
    },
    "AM": {
        "name": "Armenia",
        "name_ar": "أرمينيا",
        "name_es": "Armenia",
        "name_fr": "Arménie",
        "name_ru": "Армения",
        "name_zh": "亚美尼亚",
        "iso_alpha2": "AM",
        "iso_alpha3": "ARM",
        "un_m49": 51,
        "region_code": 142,
        "region": "Asia",
        "region_sub_code": 145,
        "region_sub": "Western Asia"
    },
    "AZ": {
        "name": "Azerbaijan",
        "name_ar": "أذربيجان",
        "name_es": "Azerbaiyán",
        "name_fr": "Azerbaïdjan",
        "name_ru": "Азербайджан",
        "name_zh": "阿塞拜疆",
        "iso_alpha2": "AZ",
        "iso_alpha3": "AZE",
        "un_m49": 31,
        "region_code": 142,
        "region": "Asia",
        "region_sub_code": 145,
        "region_sub": "Western Asia"
    },
    "BH": {
        "name": "Bahrain",
        "name_ar": "البحرين",
        "name_es": "Bahrein",
        "name_fr": "Bahreïn",
        "name_ru": "Бахрейн",
        "name_zh": "巴林",
        "iso_alpha2": "BH",
        "iso_alpha3": "BHR",
        "un_m49": 48,
        "region_code": 142,
        "region": "Asia",
        "region_sub_code": 145,
        "region_sub": "Western Asia"
    },
    "CY": {
        "name": "Cyprus",
        "name_ar": "قبرص",
        "name_es": "Chipre",
        "name_fr": "Chypre",
        "name_ru": "Кипр",
        "name_zh": "塞浦路斯",
        "iso_alpha2": "CY",
        "iso_alpha3": "CYP",
        "un_m49": 196,
        "region_code": 142,
        "region": "Asia",
        "region_sub_code": 145,
        "region_sub": "Western Asia"
    },
    "GE": {
        "name": "Georgia",
        "name_ar": "جورجيا",
        "name_es": "Georgia",
        "name_fr": "Géorgie",
        "name_ru": "Грузия",
        "name_zh": "格鲁吉亚",
        "iso_alpha2": "GE",
        "iso_alpha3": "GEO",
        "un_m49": 268,
        "region_code": 142,
        "region": "Asia",
        "region_sub_code": 145,
        "region_sub": "Western Asia"
    },
    "IQ": {
        "name": "Iraq",
        "name_ar": "العراق",
        "name_es": "Iraq",
        "name_fr": "Iraq",
        "name_ru": "Ирак",
        "name_zh": "伊拉克",
        "iso_alpha2": "IQ",
        "iso_alpha3": "IRQ",
        "un_m49": 368,
        "region_code": 142,
        "region": "Asia",
        "region_sub_code": 145,
        "region_sub": "Western Asia"
    },
    "IL": {
        "name": "Israel",
        "name_ar": "إسرائيل",
        "name_es": "Israel",
        "name_fr": "Israël",
        "name_ru": "Израиль",
        "name_zh": "以色列",
        "iso_alpha2": "IL",
        "iso_alpha3": "ISR",
        "un_m49": 376,
        "region_code": 142,
        "region": "Asia",
        "region_sub_code": 145,
        "region_sub": "Western Asia"
    },
    "JO": {
        "name": "Jordan",
        "name_ar": "الأردن",
        "name_es": "Jordania",
        "name_fr": "Jordanie",
        "name_ru": "Иордания",
        "name_zh": "约旦",
        "iso_alpha2": "JO",
        "iso_alpha3": "JOR",
        "un_m49": 400,
        "region_code": 142,
        "region": "Asia",
        "region_sub_code": 145,
        "region_sub": "Western Asia"
    },
    "KW": {
        "name": "Kuwait",
        "name_ar": "الكويت",
        "name_es": "Kuwait",
        "name_fr": "Koweït",
        "name_ru": "Кувейт",
        "name_zh": "科威特",
        "iso_alpha2": "KW",
        "iso_alpha3": "KWT",
        "un_m49": 414,
        "region_code": 142,
        "region": "Asia",
        "region_sub_code": 145,
        "region_sub": "Western Asia"
    },
    "LB": {
        "name": "Lebanon",
        "name_ar": "لبنان",
        "name_es": "Líbano",
        "name_fr": "Liban",
        "name_ru": "Ливан",
        "name_zh": "黎巴嫩",
        "iso_alpha2": "LB",
        "iso_alpha3": "LBN",
        "un_m49": 422,
        "region_code": 142,
        "region": "Asia",
        "region_sub_code": 145,
        "region_sub": "Western Asia"
    },
    "OM": {
        "name": "Oman",
        "name_ar": "عمان",
        "name_es": "Omán",
        "name_fr": "Oman",
        "name_ru": "Оман",
        "name_zh": "阿曼",
        "iso_alpha2": "OM",
        "iso_alpha3": "OMN",
        "un_m49": 512,
        "region_code": 142,
        "region": "Asia",
        "region_sub_code": 145,
        "region_sub": "Western Asia"
    },
    "QA": {
        "name": "Qatar",
        "name_ar": "قطر",
        "name_es": "Qatar",
        "name_fr": "Qatar",
        "name_ru": "Катар",
        "name_zh": "卡塔尔",
        "iso_alpha2": "QA",
        "iso_alpha3": "QAT",
        "un_m49": 634,
        "region_code": 142,
        "region": "Asia",
        "region_sub_code": 145,
        "region_sub": "Western Asia"
    },
    "SA": {
        "name": "Saudi Arabia",
        "name_ar": "المملكة العربية السعودية",
        "name_es": "Arabia Saudita",
        "name_fr": "Arabie saoudite",
        "name_ru": "Саудовская Аравия",
        "name_zh": "沙特阿拉伯",
        "iso_alpha2": "SA",
        "iso_alpha3": "SAU",
        "un_m49": 682,
        "region_code": 142,
        "region": "Asia",
        "region_sub_code": 145,
        "region_sub": "Western Asia"
    },
    "PS": {
        "name": "State of Palestine",
        "name_ar": "دولة فلسطين",
        "name_es": "Estado de Palestina",
        "name_fr": "État de Palestine",
        "name_ru": "Государство Палестина",
        "name_zh": "巴勒斯坦国",
        "iso_alpha2": "PS",
        "iso_alpha3": "PSE",
        "un_m49": 275,
        "region_code": 142,
        "region": "Asia",
        "region_sub_code": 145,
        "region_sub": "Western Asia"
    },
    "SY": {
        "name": "Syrian Arab Republic",
        "name_ar": "الجمهورية العربية السورية",
        "name_es": "República Árabe Siria",
        "name_fr": "République arabe syrienne",
        "name_ru": "Сирийская Арабская Республика",
        "name_zh": "阿拉伯叙利亚共和国",
        "iso_alpha2": "SY",
        "iso_alpha3": "SYR",
        "un_m49": 760,
        "region_code": 142,
        "region": "Asia",
        "region_sub_code": 145,
        "region_sub": "Western Asia"
    },
    "TR": {
        "name": "Türkiye",
        "name_ar": "تركيا",
        "name_es": "Türkiye",
        "name_fr": "Türkiye",
        "name_ru": "Турция",
        "name_zh": "土耳其",
        "iso_alpha2": "TR",
        "iso_alpha3": "TUR",
        "un_m49": 792,
        "region_code": 142,
        "region": "Asia",
        "region_sub_code": 145,
        "region_sub": "Western Asia"
    },
    "AE": {
        "name": "United Arab Emirates",
        "name_ar": "الإمارات العربية المتحدة",
        "name_es": "Emiratos Árabes Unidos",
        "name_fr": "Émirats arabes unis",
        "name_ru": "Объединенные Арабские Эмираты",
        "name_zh": "阿拉伯联合酋长国",
        "iso_alpha2": "AE",
        "iso_alpha3": "ARE",
        "un_m49": 784,
        "region_code": 142,
        "region": "Asia",
        "region_sub_code": 145,
        "region_sub": "Western Asia"
    },
    "YE": {
        "name": "Yemen",
        "name_ar": "اليمن",
        "name_es": "Yemen",
        "name_fr": "Yémen",
        "name_ru": "Йемен",
        "name_zh": "也门",
        "iso_alpha2": "YE",
        "iso_alpha3": "YEM",
        "un_m49": 887,
        "region_code": 142,
        "region": "Asia",
        "region_sub_code": 145,
        "region_sub": "Western Asia"
    },
    "BY": {
        "name": "Belarus",
        "name_ar": "بيلاروس",
        "name_es": "Belarús",
        "name_fr": "Bélarus",
        "name_ru": "Беларусь",
        "name_zh": "白俄罗斯",
        "iso_alpha2": "BY",
        "iso_alpha3": "BLR",
        "un_m49": 112,
        "region_code": 150,
        "region": "Europe",
        "region_sub_code": 151,
        "region_sub": "Eastern Europe"
    },
    "BG": {
        "name": "Bulgaria",
        "name_ar": "بلغاريا",
        "name_es": "Bulgaria",
        "name_fr": "Bulgarie",
        "name_ru": "Болгария",
        "name_zh": "保加利亚",
        "iso_alpha2": "BG",
        "iso_alpha3": "BGR",
        "un_m49": 100,
        "region_code": 150,
        "region": "Europe",
        "region_sub_code": 151,
        "region_sub": "Eastern Europe"
    },
    "CZ": {
        "name": "Czechia",
        "name_ar": "تشيكيا",
        "name_es": "Chequia",
        "name_fr": "Tchéquie",
        "name_ru": "Чехия",
        "name_zh": "捷克",
        "iso_alpha2": "CZ",
        "iso_alpha3": "CZE",
        "un_m49": 203,
        "region_code": 150,
        "region": "Europe",
        "region_sub_code": 151,
        "region_sub": "Eastern Europe"
    },
    "HU": {
        "name": "Hungary",
        "name_ar": "هنغاريا",
        "name_es": "Hungría",
        "name_fr": "Hongrie",
        "name_ru": "Венгрия",
        "name_zh": "匈牙利",
        "iso_alpha2": "HU",
        "iso_alpha3": "HUN",
        "un_m49": 348,
        "region_code": 150,
        "region": "Europe",
        "region_sub_code": 151,
        "region_sub": "Eastern Europe"
    },
    "PL": {
        "name": "Poland",
        "name_ar": "بولندا",
        "name_es": "Polonia",
        "name_fr": "Pologne",
        "name_ru": "Польша",
        "name_zh": "波兰",
        "iso_alpha2": "PL",
        "iso_alpha3": "POL",
        "un_m49": 616,
        "region_code": 150,
        "region": "Europe",
        "region_sub_code": 151,
        "region_sub": "Eastern Europe"
    },
    "MD": {
        "name": "Republic of Moldova",
        "name_ar": "جمهورية مولدوفا",
        "name_es": "República de Moldova",
        "name_fr": "République de Moldova",
        "name_ru": "Республика Молдова",
        "name_zh": "摩尔多瓦共和国",
        "iso_alpha2": "MD",
        "iso_alpha3": "MDA",
        "un_m49": 498,
        "region_code": 150,
        "region": "Europe",
        "region_sub_code": 151,
        "region_sub": "Eastern Europe"
    },
    "RO": {
        "name": "Romania",
        "name_ar": "رومانيا",
        "name_es": "Rumania",
        "name_fr": "Roumanie",
        "name_ru": "Румыния",
        "name_zh": "罗马尼亚",
        "iso_alpha2": "RO",
        "iso_alpha3": "ROU",
        "un_m49": 642,
        "region_code": 150,
        "region": "Europe",
        "region_sub_code": 151,
        "region_sub": "Eastern Europe"
    },
    "RU": {
        "name": "Russian Federation",
        "name_ar": "الاتحاد الروسي",
        "name_es": "Federación de Rusia",
        "name_fr": "Fédération de Russie",
        "name_ru": "Российская Федерация",
        "name_zh": "俄罗斯联邦",
        "iso_alpha2": "RU",
        "iso_alpha3": "RUS",
        "un_m49": 643,
        "region_code": 150,
        "region": "Europe",
        "region_sub_code": 151,
        "region_sub": "Eastern Europe"
    },
    "SK": {
        "name": "Slovakia",
        "name_ar": "سلوفاكيا",
        "name_es": "Eslovaquia",
        "name_fr": "Slovaquie",
        "name_ru": "Словакия",
        "name_zh": "斯洛伐克",
        "iso_alpha2": "SK",
        "iso_alpha3": "SVK",
        "un_m49": 703,
        "region_code": 150,
        "region": "Europe",
        "region_sub_code": 151,
        "region_sub": "Eastern Europe"
    },
    "UA": {
        "name": "Ukraine",
        "name_ar": "أوكرانيا",
        "name_es": "Ucrania",
        "name_fr": "Ukraine",
        "name_ru": "Украина",
        "name_zh": "乌克兰",
        "iso_alpha2": "UA",
        "iso_alpha3": "UKR",
        "un_m49": 804,
        "region_code": 150,
        "region": "Europe",
        "region_sub_code": 151,
        "region_sub": "Eastern Europe"
    },
    "AX": {
        "name": "Åland Islands",
        "name_ar": "جزر ألاند",
        "name_es": "Islas Åland",
        "name_fr": "Îles d’Åland",
        "name_ru": "Аландских островов",
        "name_zh": "奥兰群岛",
        "iso_alpha2": "AX",
        "iso_alpha3": "ALA",
        "un_m49": 248,
        "region_code": 150,
        "region": "Europe",
        "region_sub_code": 154,
        "region_sub": "Northern Europe"
    },
    "DK": {
        "name": "Denmark",
        "name_ar": "الدانمرك",
        "name_es": "Dinamarca",
        "name_fr": "Danemark",
        "name_ru": "Дания",
        "name_zh": "丹麦",
        "iso_alpha2": "DK",
        "iso_alpha3": "DNK",
        "un_m49": 208,
        "region_code": 150,
        "region": "Europe",
        "region_sub_code": 154,
        "region_sub": "Northern Europe"
    },
    "EE": {
        "name": "Estonia",
        "name_ar": "إستونيا",
        "name_es": "Estonia",
        "name_fr": "Estonie",
        "name_ru": "Эстония",
        "name_zh": "爱沙尼亚",
        "iso_alpha2": "EE",
        "iso_alpha3": "EST",
        "un_m49": 233,
        "region_code": 150,
        "region": "Europe",
        "region_sub_code": 154,
        "region_sub": "Northern Europe"
    },
    "FO": {
        "name": "Faroe Islands",
        "name_ar": "جزر فايرو",
        "name_es": "Islas Feroe",
        "name_fr": "Îles Féroé",
        "name_ru": "Фарерские острова",
        "name_zh": "法罗群岛",
        "iso_alpha2": "FO",
        "iso_alpha3": "FRO",
        "un_m49": 234,
        "region_code": 150,
        "region": "Europe",
        "region_sub_code": 154,
        "region_sub": "Northern Europe"
    },
    "FI": {
        "name": "Finland",
        "name_ar": "فنلندا",
        "name_es": "Finlandia",
        "name_fr": "Finlande",
        "name_ru": "Финляндия",
        "name_zh": "芬兰",
        "iso_alpha2": "FI",
        "iso_alpha3": "FIN",
        "un_m49": 246,
        "region_code": 150,
        "region": "Europe",
        "region_sub_code": 154,
        "region_sub": "Northern Europe"
    },
    "GG": {
        "name": "Guernsey",
        "name_ar": "غيرنسي",
        "name_es": "Guernsey",
        "name_fr": "Guernesey",
        "name_ru": "Гернси",
        "name_zh": "格恩西",
        "iso_alpha2": "GG",
        "iso_alpha3": "GGY",
        "un_m49": 831,
        "region_code": 150,
        "region": "Europe",
        "region_sub_code": 154,
        "region_sub": "Northern Europe"
    },
    "IS": {
        "name": "Iceland",
        "name_ar": "آيسلندا",
        "name_es": "Islandia",
        "name_fr": "Islande",
        "name_ru": "Исландия",
        "name_zh": "冰岛",
        "iso_alpha2": "IS",
        "iso_alpha3": "ISL",
        "un_m49": 352,
        "region_code": 150,
        "region": "Europe",
        "region_sub_code": 154,
        "region_sub": "Northern Europe"
    },
    "IE": {
        "name": "Ireland",
        "name_ar": "آيرلندا",
        "name_es": "Irlanda",
        "name_fr": "Irlande",
        "name_ru": "Ирландия",
        "name_zh": "爱尔兰",
        "iso_alpha2": "IE",
        "iso_alpha3": "IRL",
        "un_m49": 372,
        "region_code": 150,
        "region": "Europe",
        "region_sub_code": 154,
        "region_sub": "Northern Europe"
    },
    "IM": {
        "name": "Isle of Man",
        "name_ar": "جزيرة مان",
        "name_es": "Isla de Man",
        "name_fr": "Île de Man",
        "name_ru": "Остров Мэн",
        "name_zh": "马恩岛",
        "iso_alpha2": "IM",
        "iso_alpha3": "IMN",
        "un_m49": 833,
        "region_code": 150,
        "region": "Europe",
        "region_sub_code": 154,
        "region_sub": "Northern Europe"
    },
    "JE": {
        "name": "Jersey",
        "name_ar": "جيرسي",
        "name_es": "Jersey",
        "name_fr": "Jersey",
        "name_ru": "Джерси",
        "name_zh": "泽西",
        "iso_alpha2": "JE",
        "iso_alpha3": "JEY",
        "un_m49": 832,
        "region_code": 150,
        "region": "Europe",
        "region_sub_code": 154,
        "region_sub": "Northern Europe"
    },
    "LV": {
        "name": "Latvia",
        "name_ar": "لاتفيا",
        "name_es": "Letonia",
        "name_fr": "Lettonie",
        "name_ru": "Латвия",
        "name_zh": "拉脱维亚",
        "iso_alpha2": "LV",
        "iso_alpha3": "LVA",
        "un_m49": 428,
        "region_code": 150,
        "region": "Europe",
        "region_sub_code": 154,
        "region_sub": "Northern Europe"
    },
    "LT": {
        "name": "Lithuania",
        "name_ar": "ليتوانيا",
        "name_es": "Lituania",
        "name_fr": "Lituanie",
        "name_ru": "Литва",
        "name_zh": "立陶宛",
        "iso_alpha2": "LT",
        "iso_alpha3": "LTU",
        "un_m49": 440,
        "region_code": 150,
        "region": "Europe",
        "region_sub_code": 154,
        "region_sub": "Northern Europe"
    },
    "NO": {
        "name": "Norway",
        "name_ar": "النرويج",
        "name_es": "Noruega",
        "name_fr": "Norvège",
        "name_ru": "Норвегия",
        "name_zh": "挪威",
        "iso_alpha2": "NO",
        "iso_alpha3": "NOR",
        "un_m49": 578,
        "region_code": 150,
        "region": "Europe",
        "region_sub_code": 154,
        "region_sub": "Northern Europe"
    },
    "SJ": {
        "name": "Svalbard and Jan Mayen Islands",
        "name_ar": "جزيرتي سفالبارد وجان مايِن",
        "name_es": "Islas Svalbard y Jan Mayen",
        "name_fr": "Îles Svalbard-et-Jan Mayen",
        "name_ru": "Острова Свальбард и Ян-Майен",
        "name_zh": "斯瓦尔巴群岛和扬马延岛",
        "iso_alpha2": "SJ",
        "iso_alpha3": "SJM",
        "un_m49": 744,
        "region_code": 150,
        "region": "Europe",
        "region_sub_code": 154,
        "region_sub": "Northern Europe"
    },
    "SE": {
        "name": "Sweden",
        "name_ar": "السويد",
        "name_es": "Suecia",
        "name_fr": "Suède",
        "name_ru": "Швеция",
        "name_zh": "瑞典",
        "iso_alpha2": "SE",
        "iso_alpha3": "SWE",
        "un_m49": 752,
        "region_code": 150,
        "region": "Europe",
        "region_sub_code": 154,
        "region_sub": "Northern Europe"
    },
    "GB": {
        "name": "United Kingdom of Great Britain and Northern Ireland",
        "name_ar": "المملكة المتحدة لبريطانيا العظمى وآيرلندا الشمالية",
        "name_es": "Reino Unido de Gran Bretaña e Irlanda del Norte",
        "name_fr": "Royaume-Uni de Grande-Bretagne et d’Irlande du Nord",
        "name_ru": "Соединенное Королевство Великобритании и Северной Ирландии",
        "name_zh": "大不列颠及北爱尔兰联合王国",
        "iso_alpha2": "GB",
        "iso_alpha3": "GBR",
        "un_m49": 826,
        "region_code": 150,
        "region": "Europe",
        "region_sub_code": 154,
        "region_sub": "Northern Europe"
    },
    "AL": {
        "name": "Albania",
        "name_ar": "ألبانيا",
        "name_es": "Albania",
        "name_fr": "Albanie",
        "name_ru": "Албания",
        "name_zh": "阿尔巴尼亚",
        "iso_alpha2": "AL",
        "iso_alpha3": "ALB",
        "un_m49": 8,
        "region_code": 150,
        "region": "Europe",
        "region_sub_code": 39,
        "region_sub": "Southern Europe"
    },
    "AD": {
        "name": "Andorra",
        "name_ar": "أندورا",
        "name_es": "Andorra",
        "name_fr": "Andorre",
        "name_ru": "Андорра",
        "name_zh": "安道尔",
        "iso_alpha2": "AD",
        "iso_alpha3": "AND",
        "un_m49": 20,
        "region_code": 150,
        "region": "Europe",
        "region_sub_code": 39,
        "region_sub": "Southern Europe"
    },
    "BA": {
        "name": "Bosnia and Herzegovina",
        "name_ar": "البوسنة والهرسك",
        "name_es": "Bosnia y Herzegovina",
        "name_fr": "Bosnie-Herzégovine",
        "name_ru": "Босния и Герцеговина",
        "name_zh": "波斯尼亚和黑塞哥维那",
        "iso_alpha2": "BA",
        "iso_alpha3": "BIH",
        "un_m49": 70,
        "region_code": 150,
        "region": "Europe",
        "region_sub_code": 39,
        "region_sub": "Southern Europe"
    },
    "HR": {
        "name": "Croatia",
        "name_ar": "كرواتيا",
        "name_es": "Croacia",
        "name_fr": "Croatie",
        "name_ru": "Хорватия",
        "name_zh": "克罗地亚",
        "iso_alpha2": "HR",
        "iso_alpha3": "HRV",
        "un_m49": 191,
        "region_code": 150,
        "region": "Europe",
        "region_sub_code": 39,
        "region_sub": "Southern Europe"
    },
    "GI": {
        "name": "Gibraltar",
        "name_ar": "جبل طارق",
        "name_es": "Gibraltar",
        "name_fr": "Gibraltar",
        "name_ru": "Гибралтар",
        "name_zh": "直布罗陀",
        "iso_alpha2": "GI",
        "iso_alpha3": "GIB",
        "un_m49": 292,
        "region_code": 150,
        "region": "Europe",
        "region_sub_code": 39,
        "region_sub": "Southern Europe"
    },
    "GR": {
        "name": "Greece",
        "name_ar": "اليونان",
        "name_es": "Grecia",
        "name_fr": "Grèce",
        "name_ru": "Греция",
        "name_zh": "希腊",
        "iso_alpha2": "GR",
        "iso_alpha3": "GRC",
        "un_m49": 300,
        "region_code": 150,
        "region": "Europe",
        "region_sub_code": 39,
        "region_sub": "Southern Europe"
    },
    "VA": {
        "name": "Holy See",
        "name_ar": "الكرسي الرسولي",
        "name_es": "Santa Sede",
        "name_fr": "Saint-Siège",
        "name_ru": "Святой Престол",
        "name_zh": "教廷",
        "iso_alpha2": "VA",
        "iso_alpha3": "VAT",
        "un_m49": 336,
        "region_code": 150,
        "region": "Europe",
        "region_sub_code": 39,
        "region_sub": "Southern Europe"
    },
    "IT": {
        "name": "Italy",
        "name_ar": "إيطاليا",
        "name_es": "Italia",
        "name_fr": "Italie",
        "name_ru": "Италия",
        "name_zh": "意大利",
        "iso_alpha2": "IT",
        "iso_alpha3": "ITA",
        "un_m49": 380,
        "region_code": 150,
        "region": "Europe",
        "region_sub_code": 39,
        "region_sub": "Southern Europe"
    },
    "MT": {
        "name": "Malta",
        "name_ar": "مالطة",
        "name_es": "Malta",
        "name_fr": "Malte",
        "name_ru": "Мальта",
        "name_zh": "马耳他",
        "iso_alpha2": "MT",
        "iso_alpha3": "MLT",
        "un_m49": 470,
        "region_code": 150,
        "region": "Europe",
        "region_sub_code": 39,
        "region_sub": "Southern Europe"
    },
    "ME": {
        "name": "Montenegro",
        "name_ar": "الجبل الأسود",
        "name_es": "Montenegro",
        "name_fr": "Monténégro",
        "name_ru": "Черногория",
        "name_zh": "黑山",
        "iso_alpha2": "ME",
        "iso_alpha3": "MNE",
        "un_m49": 499,
        "region_code": 150,
        "region": "Europe",
        "region_sub_code": 39,
        "region_sub": "Southern Europe"
    },
    "MK": {
        "name": "North Macedonia",
        "name_ar": "مقدونيا الشمالية",
        "name_es": "Macedonia del Norte",
        "name_fr": "Macédoine du Nord",
        "name_ru": "Северная Македония",
        "name_zh": "北马其顿",
        "iso_alpha2": "MK",
        "iso_alpha3": "MKD",
        "un_m49": 807,
        "region_code": 150,
        "region": "Europe",
        "region_sub_code": 39,
        "region_sub": "Southern Europe"
    },
    "PT": {
        "name": "Portugal",
        "name_ar": "البرتغال",
        "name_es": "Portugal",
        "name_fr": "Portugal",
        "name_ru": "Португалия",
        "name_zh": "葡萄牙",
        "iso_alpha2": "PT",
        "iso_alpha3": "PRT",
        "un_m49": 620,
        "region_code": 150,
        "region": "Europe",
        "region_sub_code": 39,
        "region_sub": "Southern Europe"
    },
    "SM": {
        "name": "San Marino",
        "name_ar": "سان مارينو",
        "name_es": "San Marino",
        "name_fr": "Saint-Marin",
        "name_ru": "Сан-Марино",
        "name_zh": "圣马力诺",
        "iso_alpha2": "SM",
        "iso_alpha3": "SMR",
        "un_m49": 674,
        "region_code": 150,
        "region": "Europe",
        "region_sub_code": 39,
        "region_sub": "Southern Europe"
    },
    "RS": {
        "name": "Serbia",
        "name_ar": "صربيا",
        "name_es": "Serbia",
        "name_fr": "Serbie",
        "name_ru": "Сербия",
        "name_zh": "塞尔维亚",
        "iso_alpha2": "RS",
        "iso_alpha3": "SRB",
        "un_m49": 688,
        "region_code": 150,
        "region": "Europe",
        "region_sub_code": 39,
        "region_sub": "Southern Europe"
    },
    "SI": {
        "name": "Slovenia",
        "name_ar": "سلوفينيا",
        "name_es": "Eslovenia",
        "name_fr": "Slovénie",
        "name_ru": "Словения",
        "name_zh": "斯洛文尼亚",
        "iso_alpha2": "SI",
        "iso_alpha3": "SVN",
        "un_m49": 705,
        "region_code": 150,
        "region": "Europe",
        "region_sub_code": 39,
        "region_sub": "Southern Europe"
    },
    "ES": {
        "name": "Spain",
        "name_ar": "إسبانيا",
        "name_es": "España",
        "name_fr": "Espagne",
        "name_ru": "Испания",
        "name_zh": "西班牙",
        "iso_alpha2": "ES",
        "iso_alpha3": "ESP",
        "un_m49": 724,
        "region_code": 150,
        "region": "Europe",
        "region_sub_code": 39,
        "region_sub": "Southern Europe"
    },
    "AT": {
        "name": "Austria",
        "name_ar": "النمسا",
        "name_es": "Austria",
        "name_fr": "Autriche",
        "name_ru": "Австрия",
        "name_zh": "奥地利",
        "iso_alpha2": "AT",
        "iso_alpha3": "AUT",
        "un_m49": 40,
        "region_code": 150,
        "region": "Europe",
        "region_sub_code": 155,
        "region_sub": "Western Europe"
    },
    "BE": {
        "name": "Belgium",
        "name_ar": "بلجيكا",
        "name_es": "Bélgica",
        "name_fr": "Belgique",
        "name_ru": "Бельгия",
        "name_zh": "比利时",
        "iso_alpha2": "BE",
        "iso_alpha3": "BEL",
        "un_m49": 56,
        "region_code": 150,
        "region": "Europe",
        "region_sub_code": 155,
        "region_sub": "Western Europe"
    },
    "FR": {
        "name": "France",
        "name_ar": "فرنسا",
        "name_es": "Francia",
        "name_fr": "France",
        "name_ru": "Франция",
        "name_zh": "法国",
        "iso_alpha2": "FR",
        "iso_alpha3": "FRA",
        "un_m49": 250,
        "region_code": 150,
        "region": "Europe",
        "region_sub_code": 155,
        "region_sub": "Western Europe"
    },
    "DE": {
        "name": "Germany",
        "name_ar": "ألمانيا",
        "name_es": "Alemania",
        "name_fr": "Allemagne",
        "name_ru": "Германия",
        "name_zh": "德国",
        "iso_alpha2": "DE",
        "iso_alpha3": "DEU",
        "un_m49": 276,
        "region_code": 150,
        "region": "Europe",
        "region_sub_code": 155,
        "region_sub": "Western Europe"
    },
    "LI": {
        "name": "Liechtenstein",
        "name_ar": "ليختنشتاين",
        "name_es": "Liechtenstein",
        "name_fr": "Liechtenstein",
        "name_ru": "Лихтенштейн",
        "name_zh": "列支敦士登",
        "iso_alpha2": "LI",
        "iso_alpha3": "LIE",
        "un_m49": 438,
        "region_code": 150,
        "region": "Europe",
        "region_sub_code": 155,
        "region_sub": "Western Europe"
    },
    "LU": {
        "name": "Luxembourg",
        "name_ar": "لكسمبرغ",
        "name_es": "Luxemburgo",
        "name_fr": "Luxembourg",
        "name_ru": "Люксембург",
        "name_zh": "卢森堡",
        "iso_alpha2": "LU",
        "iso_alpha3": "LUX",
        "un_m49": 442,
        "region_code": 150,
        "region": "Europe",
        "region_sub_code": 155,
        "region_sub": "Western Europe"
    },
    "MC": {
        "name": "Monaco",
        "name_ar": "موناكو",
        "name_es": "Mónaco",
        "name_fr": "Monaco",
        "name_ru": "Монако",
        "name_zh": "摩纳哥",
        "iso_alpha2": "MC",
        "iso_alpha3": "MCO",
        "un_m49": 492,
        "region_code": 150,
        "region": "Europe",
        "region_sub_code": 155,
        "region_sub": "Western Europe"
    },
    "NL": {
        "name": "Netherlands (Kingdom of the)",
        "name_ar": "هولندا (مملكة _)",
        "name_es": "Países Bajos (Reino de los)",
        "name_fr": "Pays-Bas (Royaume des)",
        "name_ru": "Нидерланды (Королевство)",
        "name_zh": "荷兰王国",
        "iso_alpha2": "NL",
        "iso_alpha3": "NLD",
        "un_m49": 528,
        "region_code": 150,
        "region": "Europe",
        "region_sub_code": 155,
        "region_sub": "Western Europe"
    },
    "CH": {
        "name": "Switzerland",
        "name_ar": "سويسرا",
        "name_es": "Suiza",
        "name_fr": "Suisse",
        "name_ru": "Швейцария",
        "name_zh": "瑞士",
        "iso_alpha2": "CH",
        "iso_alpha3": "CHE",
        "un_m49": 756,
        "region_code": 150,
        "region": "Europe",
        "region_sub_code": 155,
        "region_sub": "Western Europe"
    },
    "AU": {
        "name": "Australia",
        "name_ar": "أستراليا",
        "name_es": "Australia",
        "name_fr": "Australie",
        "name_ru": "Австралия",
        "name_zh": "澳大利亚",
        "iso_alpha2": "AU",
        "iso_alpha3": "AUS",
        "un_m49": 36,
        "region_code": 9,
        "region": "Oceania",
        "region_sub_code": 53,
        "region_sub": "Australia and New Zealand"
    },
    "CX": {
        "name": "Christmas Island",
        "name_ar": "جزيرة عيد الميلاد",
        "name_es": "Isla Christmas",
        "name_fr": "Île Christmas",
        "name_ru": "остров Рождества",
        "name_zh": "圣诞岛",
        "iso_alpha2": "CX",
        "iso_alpha3": "CXR",
        "un_m49": 162,
        "region_code": 9,
        "region": "Oceania",
        "region_sub_code": 53,
        "region_sub": "Australia and New Zealand"
    },
    "CC": {
        "name": "Cocos (Keeling) Islands",
        "name_ar": "جزر كوكس (كيلينغ)",
        "name_es": "Islas Cocos (Keeling)",
        "name_fr": "Îles des Cocos (Keeling)",
        "name_ru": "Кокосовых (Килинг) островов",
        "name_zh": "科科斯（基林）群岛",
        "iso_alpha2": "CC",
        "iso_alpha3": "CCK",
        "un_m49": 166,
        "region_code": 9,
        "region": "Oceania",
        "region_sub_code": 53,
        "region_sub": "Australia and New Zealand"
    },
    "HM": {
        "name": "Heard Island and McDonald Islands",
        "name_ar": "جزيرة هيرد وجزر ماكدونالد",
        "name_es": "Islas Heard y McDonald",
        "name_fr": "Île Heard-et-Îles MacDonald",
        "name_ru": "Остров Херд и острова Макдональд",
        "name_zh": "赫德岛和麦克唐纳岛",
        "iso_alpha2": "HM",
        "iso_alpha3": "HMD",
        "un_m49": 334,
        "region_code": 9,
        "region": "Oceania",
        "region_sub_code": 53,
        "region_sub": "Australia and New Zealand"
    },
    "NZ": {
        "name": "New Zealand",
        "name_ar": "نيوزيلندا",
        "name_es": "Nueva Zelandia",
        "name_fr": "Nouvelle-Zélande",
        "name_ru": "Новая Зеландия",
        "name_zh": "新西兰",
        "iso_alpha2": "NZ",
        "iso_alpha3": "NZL",
        "un_m49": 554,
        "region_code": 9,
        "region": "Oceania",
        "region_sub_code": 53,
        "region_sub": "Australia and New Zealand"
    },
    "NF": {
        "name": "Norfolk Island",
        "name_ar": "جزيرة نورفولك",
        "name_es": "Isla Norfolk",
        "name_fr": "Île Norfolk",
        "name_ru": "Остров Норфолк",
        "name_zh": "诺福克岛",
        "iso_alpha2": "NF",
        "iso_alpha3": "NFK",
        "un_m49": 574,
        "region_code": 9,
        "region": "Oceania",
        "region_sub_code": 53,
        "region_sub": "Australia and New Zealand"
    },
    "FJ": {
        "name": "Fiji",
        "name_ar": "فيجي",
        "name_es": "Fiji",
        "name_fr": "Fidji",
        "name_ru": "Фиджи",
        "name_zh": "斐济",
        "iso_alpha2": "FJ",
        "iso_alpha3": "FJI",
        "un_m49": 242,
        "region_code": 9,
        "region": "Oceania",
        "region_sub_code": 54,
        "region_sub": "Melanesia"
    },
    "NC": {
        "name": "New Caledonia",
        "name_ar": "كاليدونيا الجديدة",
        "name_es": "Nueva Caledonia",
        "name_fr": "Nouvelle-Calédonie",
        "name_ru": "Новая Каледония",
        "name_zh": "新喀里多尼亚",
        "iso_alpha2": "NC",
        "iso_alpha3": "NCL",
        "un_m49": 540,
        "region_code": 9,
        "region": "Oceania",
        "region_sub_code": 54,
        "region_sub": "Melanesia"
    },
    "PG": {
        "name": "Papua New Guinea",
        "name_ar": "بابوا غينيا الجديدة",
        "name_es": "Papua Nueva Guinea",
        "name_fr": "Papouasie-Nouvelle-Guinée",
        "name_ru": "Папуа-Новая Гвинея",
        "name_zh": "巴布亚新几内亚",
        "iso_alpha2": "PG",
        "iso_alpha3": "PNG",
        "un_m49": 598,
        "region_code": 9,
        "region": "Oceania",
        "region_sub_code": 54,
        "region_sub": "Melanesia"
    },
    "SB": {
        "name": "Solomon Islands",
        "name_ar": "جزر سليمان",
        "name_es": "Islas Salomón",
        "name_fr": "Îles Salomon",
        "name_ru": "Соломоновы Острова",
        "name_zh": "所罗门群岛",
        "iso_alpha2": "SB",
        "iso_alpha3": "SLB",
        "un_m49": 90,
        "region_code": 9,
        "region": "Oceania",
        "region_sub_code": 54,
        "region_sub": "Melanesia"
    },
    "VU": {
        "name": "Vanuatu",
        "name_ar": "فانواتو",
        "name_es": "Vanuatu",
        "name_fr": "Vanuatu",
        "name_ru": "Вануату",
        "name_zh": "瓦努阿图",
        "iso_alpha2": "VU",
        "iso_alpha3": "VUT",
        "un_m49": 548,
        "region_code": 9,
        "region": "Oceania",
        "region_sub_code": 54,
        "region_sub": "Melanesia"
    },
    "GU": {
        "name": "Guam",
        "name_ar": "غوام",
        "name_es": "Guam",
        "name_fr": "Guam",
        "name_ru": "Гуам",
        "name_zh": "关岛",
        "iso_alpha2": "GU",
        "iso_alpha3": "GUM",
        "un_m49": 316,
        "region_code": 9,
        "region": "Oceania",
        "region_sub_code": 57,
        "region_sub": "Micronesia"
    },
    "KI": {
        "name": "Kiribati",
        "name_ar": "كيريباس",
        "name_es": "Kiribati",
        "name_fr": "Kiribati",
        "name_ru": "Кирибати",
        "name_zh": "基里巴斯",
        "iso_alpha2": "KI",
        "iso_alpha3": "KIR",
        "un_m49": 296,
        "region_code": 9,
        "region": "Oceania",
        "region_sub_code": 57,
        "region_sub": "Micronesia"
    },
    "MH": {
        "name": "Marshall Islands",
        "name_ar": "جزر مارشال",
        "name_es": "Islas Marshall",
        "name_fr": "Îles Marshall",
        "name_ru": "Маршалловы Острова",
        "name_zh": "马绍尔群岛",
        "iso_alpha2": "MH",
        "iso_alpha3": "MHL",
        "un_m49": 584,
        "region_code": 9,
        "region": "Oceania",
        "region_sub_code": 57,
        "region_sub": "Micronesia"
    },
    "FM": {
        "name": "Micronesia (Federated States of)",
        "name_ar": "ميكرونيزيا (ولايات - الموحدة)",
        "name_es": "Micronesia (Estados Federados de)",
        "name_fr": "Micronésie (États fédérés de)",
        "name_ru": "Микронезия (Федеративные Штаты)",
        "name_zh": "密克罗尼西亚联邦",
        "iso_alpha2": "FM",
        "iso_alpha3": "FSM",
        "un_m49": 583,
        "region_code": 9,
        "region": "Oceania",
        "region_sub_code": 57,
        "region_sub": "Micronesia"
    },
    "NR": {
        "name": "Nauru",
        "name_ar": "ناورو",
        "name_es": "Nauru",
        "name_fr": "Nauru",
        "name_ru": "Науру",
        "name_zh": "瑙鲁",
        "iso_alpha2": "NR",
        "iso_alpha3": "NRU",
        "un_m49": 520,
        "region_code": 9,
        "region": "Oceania",
        "region_sub_code": 57,
        "region_sub": "Micronesia"
    },
    "MP": {
        "name": "Northern Mariana Islands",
        "name_ar": "جزر ماريانا الشمالية",
        "name_es": "Islas Marianas Septentrionales",
        "name_fr": "Îles Mariannes du Nord",
        "name_ru": "Северные Марианские острова",
        "name_zh": "北马里亚纳群岛",
        "iso_alpha2": "MP",
        "iso_alpha3": "MNP",
        "un_m49": 580,
        "region_code": 9,
        "region": "Oceania",
        "region_sub_code": 57,
        "region_sub": "Micronesia"
    },
    "PW": {
        "name": "Palau",
        "name_ar": "بالاو",
        "name_es": "Palau",
        "name_fr": "Palaos",
        "name_ru": "Палау",
        "name_zh": "帕劳",
        "iso_alpha2": "PW",
        "iso_alpha3": "PLW",
        "un_m49": 585,
        "region_code": 9,
        "region": "Oceania",
        "region_sub_code": 57,
        "region_sub": "Micronesia"
    },
    "UM": {
        "name": "United States Minor Outlying Islands",
        "name_ar": "نائية التابعة للولايات المتحدة",
        "name_es": "Islas menores alejadas de Estados Unidos",
        "name_fr": "Îles mineures éloignées des États-Unis",
        "name_ru": "Внешние малые острова Соединенных Штатов",
        "name_zh": "美国本土外小岛屿",
        "iso_alpha2": "UM",
        "iso_alpha3": "UMI",
        "un_m49": 581,
        "region_code": 9,
        "region": "Oceania",
        "region_sub_code": 57,
        "region_sub": "Micronesia"
    },
    "AS": {
        "name": "American Samoa",
        "name_ar": "ساموا الأمريكية",
        "name_es": "Samoa Americana",
        "name_fr": "Samoa américaines",
        "name_ru": "Американское Самоа",
        "name_zh": "美属萨摩亚",
        "iso_alpha2": "AS",
        "iso_alpha3": "ASM",
        "un_m49": 16,
        "region_code": 9,
        "region": "Oceania",
        "region_sub_code": 61,
        "region_sub": "Polynesia"
    },
    "CK": {
        "name": "Cook Islands",
        "name_ar": "جزر كوك",
        "name_es": "Islas Cook",
        "name_fr": "Îles Cook",
        "name_ru": "Острова Кука",
        "name_zh": "库克群岛",
        "iso_alpha2": "CK",
        "iso_alpha3": "COK",
        "un_m49": 184,
        "region_code": 9,
        "region": "Oceania",
        "region_sub_code": 61,
        "region_sub": "Polynesia"
    },
    "PF": {
        "name": "French Polynesia",
        "name_ar": "بولينيزيا الفرنسية",
        "name_es": "Polinesia Francesa",
        "name_fr": "Polynésie française",
        "name_ru": "Французская Полинезия",
        "name_zh": "法属波利尼西亚",
        "iso_alpha2": "PF",
        "iso_alpha3": "PYF",
        "un_m49": 258,
        "region_code": 9,
        "region": "Oceania",
        "region_sub_code": 61,
        "region_sub": "Polynesia"
    },
    "NU": {
        "name": "Niue",
        "name_ar": "نيوي",
        "name_es": "Niue",
        "name_fr": "Nioué",
        "name_ru": "Ниуэ",
        "name_zh": "纽埃",
        "iso_alpha2": "NU",
        "iso_alpha3": "NIU",
        "un_m49": 570,
        "region_code": 9,
        "region": "Oceania",
        "region_sub_code": 61,
        "region_sub": "Polynesia"
    },
    "PN": {
        "name": "Pitcairn",
        "name_ar": "بيتكرن",
        "name_es": "Pitcairn",
        "name_fr": "Pitcairn",
        "name_ru": "Питкэрн",
        "name_zh": "皮特凯恩",
        "iso_alpha2": "PN",
        "iso_alpha3": "PCN",
        "un_m49": 612,
        "region_code": 9,
        "region": "Oceania",
        "region_sub_code": 61,
        "region_sub": "Polynesia"
    },
    "WS": {
        "name": "Samoa",
        "name_ar": "ساموا",
        "name_es": "Samoa",
        "name_fr": "Samoa",
        "name_ru": "Самоа",
        "name_zh": "萨摩亚",
        "iso_alpha2": "WS",
        "iso_alpha3": "WSM",
        "un_m49": 882,
        "region_code": 9,
        "region": "Oceania",
        "region_sub_code": 61,
        "region_sub": "Polynesia"
    },
    "TK": {
        "name": "Tokelau",
        "name_ar": "توكيلاو",
        "name_es": "Tokelau",
        "name_fr": "Tokélaou",
        "name_ru": "Токелау",
        "name_zh": "托克劳",
        "iso_alpha2": "TK",
        "iso_alpha3": "TKL",
        "un_m49": 772,
        "region_code": 9,
        "region": "Oceania",
        "region_sub_code": 61,
        "region_sub": "Polynesia"
    },
    "TO": {
        "name": "Tonga",
        "name_ar": "تونغا",
        "name_es": "Tonga",
        "name_fr": "Tonga",
        "name_ru": "Тонга",
        "name_zh": "汤加",
        "iso_alpha2": "TO",
        "iso_alpha3": "TON",
        "un_m49": 776,
        "region_code": 9,
        "region": "Oceania",
        "region_sub_code": 61,
        "region_sub": "Polynesia"
    },
    "TV": {
        "name": "Tuvalu",
        "name_ar": "توفالو",
        "name_es": "Tuvalu",
        "name_fr": "Tuvalu",
        "name_ru": "Тувалу",
        "name_zh": "图瓦卢",
        "iso_alpha2": "TV",
        "iso_alpha3": "TUV",
        "un_m49": 798,
        "region_code": 9,
        "region": "Oceania",
        "region_sub_code": 61,
        "region_sub": "Polynesia"
    },
    "WF": {
        "name": "Wallis and Futuna Islands",
        "name_ar": "جزر واليس وفوتونا",
        "name_es": "Islas Wallis y Futuna",
        "name_fr": "Îles Wallis-et-Futuna",
        "name_ru": "Острова Уоллис и Футуна",
        "name_zh": "瓦利斯群岛和富图纳群岛",
        "iso_alpha2": "WF",
        "iso_alpha3": "WLF",
        "un_m49": 876,
        "region_code": 9,
        "region": "Oceania",
        "region_sub_code": 61,
        "region_sub": "Polynesia"
    }
}